{
"type": "FeatureCollection",
"name": "wb_85.8500_28.2500_85.9500_28.3500",
"crs": { "type": "name", "properties": { "name": "urn:ogc:def:crs:OGC:1.3:CRS84" } },
"features": [
{ "type": "Feature", "properties": { "water_type": "water", "name": "贡错" }, "geometry": { "type": "Polygon", "coordinates": [ [ [ 85.8779412, 28.3308103 ], [ 85.8778519, 28.3307427 ], [ 85.8776955, 28.3306653 ], [ 85.8776006, 28.3305928 ], [ 85.8774861, 28.3304638 ], [ 85.877186, 28.3301775 ], [ 85.8770381, 28.3300485 ], [ 85.8769222, 28.329987 ], [ 85.876791, 28.3298949 ], [ 85.8766221, 28.3298408 ], [ 85.8765034, 28.329815 ], [ 85.8764308, 28.3297548 ], [ 85.8763499, 28.3297302 ], [ 85.8763038, 28.3297339 ], [ 85.8762312, 28.3297818 ], [ 85.8761851, 28.3298506 ], [ 85.8761349, 28.3299539 ], [ 85.8761, 28.3300288 ], [ 85.8760665, 28.3300571 ], [ 85.8760162, 28.3300497 ], [ 85.8759744, 28.3299944 ], [ 85.8759297, 28.3298347 ], [ 85.8759046, 28.3297487 ], [ 85.8758571, 28.3296319 ], [ 85.8758306, 28.3295226 ], [ 85.8757301, 28.3293985 ], [ 85.8756072, 28.329224 ], [ 85.8755835, 28.3291023 ], [ 85.8756575, 28.3288787 ], [ 85.8756994, 28.3288025 ], [ 85.875772, 28.3287497 ], [ 85.8758501, 28.3287128 ], [ 85.8759283, 28.3286833 ], [ 85.8760134, 28.3286182 ], [ 85.8760972, 28.3284904 ], [ 85.8761698, 28.3283123 ], [ 85.8762521, 28.3280149 ], [ 85.8762946, 28.3276549 ], [ 85.8763281, 28.3273158 ], [ 85.8764168, 28.3269796 ], [ 85.876414, 28.326885 ], [ 85.8763623, 28.3268162 ], [ 85.8762688, 28.3267756 ], [ 85.8761865, 28.3267646 ], [ 85.8760776, 28.3267732 ], [ 85.8759226, 28.3268309 ], [ 85.8757314, 28.3269071 ], [ 85.8754288, 28.3269592 ], [ 85.8752827, 28.3269592 ], [ 85.8751188, 28.3269157 ], [ 85.8749885, 28.3269071 ], [ 85.8748069, 28.3268601 ], [ 85.8745977, 28.326775 ], [ 85.8744338, 28.3266533 ], [ 85.8743233, 28.3266047 ], [ 85.8742423, 28.3265665 ], [ 85.8741693, 28.3265056 ], [ 85.8741377, 28.3264448 ], [ 85.8740646, 28.3263388 ], [ 85.8740173, 28.3262432 ], [ 85.8739975, 28.3261007 ], [ 85.8740548, 28.3259461 ], [ 85.8740508, 28.3258592 ], [ 85.8740094, 28.3257879 ], [ 85.8738909, 28.3257097 ], [ 85.8738258, 28.3256628 ], [ 85.8737409, 28.3255586 ], [ 85.873724, 28.3254006 ], [ 85.8736473, 28.3252642 ], [ 85.8734881, 28.3249853 ], [ 85.8733192, 28.3247211 ], [ 85.8731182, 28.3245355 ], [ 85.872906, 28.3243844 ], [ 85.8726631, 28.3241767 ], [ 85.8724698, 28.3239657 ], [ 85.8723454, 28.323838 ], [ 85.8722349, 28.3237702 ], [ 85.8721816, 28.3237467 ], [ 85.8721085, 28.3237459 ], [ 85.8719881, 28.3237745 ], [ 85.8718647, 28.3238223 ], [ 85.8717552, 28.3238588 ], [ 85.8716565, 28.3238684 ], [ 85.871541, 28.3238562 ], [ 85.8713712, 28.3238023 ], [ 85.8712873, 28.3237528 ], [ 85.8712113, 28.3237181 ], [ 85.8711185, 28.3236972 ], [ 85.8709833, 28.3236894 ], [ 85.8708816, 28.3236529 ], [ 85.8707701, 28.3235643 ], [ 85.8706941, 28.3234748 ], [ 85.8706625, 28.3232975 ], [ 85.87062, 28.3231385 ], [ 85.8705766, 28.3230568 ], [ 85.8704838, 28.3229691 ], [ 85.8703683, 28.3228969 ], [ 85.8702538, 28.3228674 ], [ 85.8701403, 28.3228622 ], [ 85.8699942, 28.3228535 ], [ 85.8698663, 28.3228732 ], [ 85.8697309, 28.3228707 ], [ 85.8696262, 28.3228572 ], [ 85.8695843, 28.3228252 ], [ 85.8695438, 28.3227662 ], [ 85.8694963, 28.3226495 ], [ 85.8694391, 28.3225463 ], [ 85.8693456, 28.3224554 ], [ 85.8691348, 28.3223325 ], [ 85.8689129, 28.3222366 ], [ 85.8687244, 28.3221789 ], [ 85.8685904, 28.3221629 ], [ 85.868522, 28.3221309 ], [ 85.8684508, 28.3220621 ], [ 85.8683084, 28.3219773 ], [ 85.8681116, 28.321879 ], [ 85.8679427, 28.3217943 ], [ 85.8677794, 28.3216812 ], [ 85.8675951, 28.3215903 ], [ 85.8672601, 28.3214072 ], [ 85.8669739, 28.3212597 ], [ 85.8666808, 28.3211589 ], [ 85.8664072, 28.3211036 ], [ 85.8660498, 28.3210434 ], [ 85.8657776, 28.3209648 ], [ 85.8654356, 28.3208063 ], [ 85.8650489, 28.3206465 ], [ 85.8647111, 28.3204376 ], [ 85.8643217, 28.3201771 ], [ 85.864122, 28.3200505 ], [ 85.8639978, 28.3199068 ], [ 85.8639922, 28.3198293 ], [ 85.864009, 28.3197679 ], [ 85.8640132, 28.319704 ], [ 85.8640048, 28.319672 ], [ 85.8639601, 28.3196352 ], [ 85.8639085, 28.3196081 ], [ 85.863847, 28.3195651 ], [ 85.863787, 28.3195307 ], [ 85.8636991, 28.3194926 ], [ 85.8635679, 28.3193956 ], [ 85.863526, 28.3193132 ], [ 85.8634925, 28.319092 ], [ 85.8634576, 28.3190257 ], [ 85.8633822, 28.3189482 ], [ 85.8632998, 28.3188991 ], [ 85.863191, 28.3188782 ], [ 85.8630374, 28.3188684 ], [ 85.8628532, 28.3188831 ], [ 85.8625558, 28.3189212 ], [ 85.8623688, 28.3189384 ], [ 85.8622417, 28.3189224 ], [ 85.8621301, 28.3188942 ], [ 85.8620142, 28.318888 ], [ 85.8618634, 28.318904 ], [ 85.8617155, 28.3189163 ], [ 85.8615511, 28.3189082 ], [ 85.8614129, 28.3189082 ], [ 85.8613024, 28.3189569 ], [ 85.8611918, 28.3190212 ], [ 85.861105, 28.3191289 ], [ 85.861099, 28.3191828 ], [ 85.8611227, 28.3192541 ], [ 85.8612017, 28.3193635 ], [ 85.8613517, 28.3195113 ], [ 85.8615985, 28.3198154 ], [ 85.8616676, 28.3199179 ], [ 85.8617544, 28.3201299 ], [ 85.8618077, 28.3203976 ], [ 85.8617979, 28.3206131 ], [ 85.8617604, 28.3207973 ], [ 85.8617604, 28.3209728 ], [ 85.8617841, 28.3212213 ], [ 85.8618413, 28.3213464 ], [ 85.861944, 28.3217461 ], [ 85.8619716, 28.3218382 ], [ 85.86194, 28.3219877 ], [ 85.8619222, 28.3220763 ], [ 85.8619242, 28.3221702 ], [ 85.8619657, 28.3222918 ], [ 85.8619992, 28.3225264 ], [ 85.8619953, 28.3226707 ], [ 85.8619558, 28.3227732 ], [ 85.8619025, 28.3228462 ], [ 85.8618768, 28.3229522 ], [ 85.8618768, 28.3230999 ], [ 85.8618729, 28.3234162 ], [ 85.861792, 28.3239097 ], [ 85.8617584, 28.3240522 ], [ 85.8617663, 28.3242451 ], [ 85.8618097, 28.3244988 ], [ 85.8617505, 28.3248742 ], [ 85.861713, 28.3251922 ], [ 85.8617367, 28.3255085 ], [ 85.8616992, 28.3256127 ], [ 85.8616656, 28.3257813 ], [ 85.8616478, 28.3258595 ], [ 85.8615689, 28.3259863 ], [ 85.8615314, 28.3261115 ], [ 85.8615294, 28.3263513 ], [ 85.8614899, 28.3266085 ], [ 85.8614879, 28.326817 ], [ 85.8614544, 28.3269282 ], [ 85.8614366, 28.3270203 ], [ 85.8614307, 28.3272566 ], [ 85.8613517, 28.3274043 ], [ 85.8612826, 28.3275798 ], [ 85.8611918, 28.3277971 ], [ 85.8611563, 28.3280317 ], [ 85.8610694, 28.3283288 ], [ 85.8610517, 28.3284817 ], [ 85.8610951, 28.3286329 ], [ 85.8611405, 28.3287632 ], [ 85.8611958, 28.3289196 ], [ 85.8611563, 28.3290274 ], [ 85.8611405, 28.3291004 ], [ 85.8611168, 28.3292307 ], [ 85.8610694, 28.3293749 ], [ 85.8609509, 28.3295772 ], [ 85.860902, 28.3296903 ], [ 85.8608727, 28.3298574 ], [ 85.8609027, 28.3300525 ], [ 85.8609263, 28.3301968 ], [ 85.8610329, 28.3303723 ], [ 85.8611159, 28.3305008 ], [ 85.8611218, 28.3306329 ], [ 85.8611632, 28.3307997 ], [ 85.8612383, 28.330944 ], [ 85.8612067, 28.3310708 ], [ 85.8612086, 28.3312324 ], [ 85.8612146, 28.3313401 ], [ 85.8612442, 28.3314062 ], [ 85.8612422, 28.3314739 ], [ 85.8612205, 28.3314931 ], [ 85.8611948, 28.3315122 ], [ 85.8611771, 28.3315678 ], [ 85.8612205, 28.3316494 ], [ 85.8612738, 28.331712 ], [ 85.8613231, 28.3318475 ], [ 85.8614594, 28.332096 ], [ 85.8615719, 28.3322681 ], [ 85.8617752, 28.3324279 ], [ 85.8619667, 28.3325791 ], [ 85.862101, 28.3326642 ], [ 85.8621819, 28.3327007 ], [ 85.8622786, 28.3327372 ], [ 85.8623635, 28.3327563 ], [ 85.862559, 28.3328589 ], [ 85.8626261, 28.3328936 ], [ 85.862707, 28.3329145 ], [ 85.8629191, 28.3329619 ], [ 85.8633071, 28.3331462 ], [ 85.863645, 28.33336 ], [ 85.8640191, 28.3335492 ], [ 85.8642675, 28.333618 ], [ 85.864583, 28.333704 ], [ 85.8650409, 28.3338637 ], [ 85.865697, 28.3340726 ], [ 85.8660807, 28.3341831 ], [ 85.8666614, 28.3343895 ], [ 85.8671556, 28.3346475 ], [ 85.8675744, 28.3349055 ], [ 85.8680573, 28.3351071 ], [ 85.8691426, 28.3357169 ], [ 85.8695413, 28.3359462 ], [ 85.869794, 28.3360713 ], [ 85.8704731, 28.3362694 ], [ 85.8709667, 28.3362798 ], [ 85.8712036, 28.3362729 ], [ 85.8715589, 28.3361478 ], [ 85.8720051, 28.3359358 ], [ 85.8724433, 28.3358281 ], [ 85.8727039, 28.3357933 ], [ 85.8730434, 28.3356543 ], [ 85.8732172, 28.335557 ], [ 85.8732803, 28.3354215 ], [ 85.8733396, 28.3352269 ], [ 85.8734185, 28.3351122 ], [ 85.8735923, 28.3350461 ], [ 85.8737304, 28.3350288 ], [ 85.8739358, 28.3350496 ], [ 85.8741648, 28.3350844 ], [ 85.8744056, 28.3351956 ], [ 85.8746622, 28.3353867 ], [ 85.8748636, 28.3356126 ], [ 85.8750215, 28.3359914 ], [ 85.8750452, 28.3363146 ], [ 85.8750965, 28.3364814 ], [ 85.8751755, 28.3367038 ], [ 85.8751881, 28.3372742 ], [ 85.8751797, 28.3374413 ], [ 85.8751937, 28.3375248 ], [ 85.8752188, 28.3375715 ], [ 85.8753332, 28.3376182 ], [ 85.875431, 28.3376281 ], [ 85.8755119, 28.3376231 ], [ 85.8756041, 28.3375568 ], [ 85.8757101, 28.33737 ], [ 85.8759279, 28.3371587 ], [ 85.876101, 28.3370481 ], [ 85.8764556, 28.3368737 ], [ 85.8767934, 28.3367238 ], [ 85.8770754, 28.3367189 ], [ 85.8772457, 28.3367434 ], [ 85.8773825, 28.3367803 ], [ 85.8775556, 28.3367803 ], [ 85.8777538, 28.3367582 ], [ 85.8779297, 28.3367066 ], [ 85.8780581, 28.3366083 ], [ 85.8782535, 28.3363036 ], [ 85.8783512, 28.336166 ], [ 85.8784322, 28.3361217 ], [ 85.8785327, 28.3361414 ], [ 85.8786081, 28.3362151 ], [ 85.8786472, 28.3363675 ], [ 85.8786611, 28.3364608 ], [ 85.8788119, 28.3365124 ], [ 85.8789766, 28.3365051 ], [ 85.8790939, 28.3364535 ], [ 85.8791664, 28.3363183 ], [ 85.8790967, 28.3361709 ], [ 85.8790157, 28.3360603 ], [ 85.8789459, 28.3359743 ], [ 85.8789264, 28.3358711 ], [ 85.8790129, 28.3357703 ], [ 85.8791832, 28.3357236 ], [ 85.879387, 28.3357163 ], [ 85.8796466, 28.3356671 ], [ 85.879856, 28.3355615 ], [ 85.8799398, 28.3354828 ], [ 85.8800487, 28.3354165 ], [ 85.8802748, 28.3354066 ], [ 85.8805205, 28.3353772 ], [ 85.8806964, 28.3352617 ], [ 85.8807662, 28.3351707 ], [ 85.8807801, 28.3350823 ], [ 85.8807494, 28.3348808 ], [ 85.8806312, 28.3345441 ], [ 85.8805443, 28.3341618 ], [ 85.8804575, 28.3339151 ], [ 85.8803232, 28.3336996 ], [ 85.8802877, 28.3334598 ], [ 85.8801376, 28.3332548 ], [ 85.8797862, 28.3329003 ], [ 85.8796362, 28.3326883 ], [ 85.8795651, 28.3324972 ], [ 85.8793085, 28.3322052 ], [ 85.8787123, 28.3316422 ], [ 85.8783649, 28.3311835 ], [ 85.8780688, 28.3309472 ], [ 85.8779412, 28.3308103 ] ] ] } },
{ "type": "Feature", "properties": { "water_type": "water", "name": "" }, "geometry": { "type": "Polygon", "coordinates": [ [ [ 85.9311952, 28.3205259 ], [ 85.9311407, 28.3204534 ], [ 85.9310863, 28.320408 ], [ 85.9310276, 28.3203871 ], [ 85.9309802, 28.3203687 ], [ 85.9309439, 28.3203146 ], [ 85.9309299, 28.3201954 ], [ 85.9308769, 28.3199545 ], [ 85.9308071, 28.3197088 ], [ 85.9307345, 28.3194396 ], [ 85.9305837, 28.3191349 ], [ 85.9304986, 28.3190427 ], [ 85.9303367, 28.3189629 ], [ 85.9301817, 28.3189039 ], [ 85.9301273, 28.318883 ], [ 85.930098, 28.3188486 ], [ 85.9300854, 28.318808 ], [ 85.9300505, 28.3187625 ], [ 85.9298279, 28.3187298 ], [ 85.9296562, 28.3187315 ], [ 85.929518, 28.3187611 ], [ 85.9294035, 28.3187993 ], [ 85.9293364, 28.3188636 ], [ 85.9292614, 28.3189574 ], [ 85.9292061, 28.3189991 ], [ 85.9291429, 28.3190304 ], [ 85.9290462, 28.3190913 ], [ 85.9289929, 28.3191695 ], [ 85.9289514, 28.3192911 ], [ 85.9289337, 28.3193954 ], [ 85.9289574, 28.3194475 ], [ 85.9289455, 28.3194788 ], [ 85.9289021, 28.3195292 ], [ 85.9288823, 28.3197534 ], [ 85.9288369, 28.3199254 ], [ 85.9288152, 28.3200784 ], [ 85.9287461, 28.3202852 ], [ 85.9286494, 28.3206049 ], [ 85.9286533, 28.3207057 ], [ 85.9286711, 28.32081 ], [ 85.9287205, 28.3209455 ], [ 85.928829, 28.321208 ], [ 85.9288586, 28.3213348 ], [ 85.9288567, 28.3214287 ], [ 85.9289475, 28.3216198 ], [ 85.928987, 28.3217536 ], [ 85.929058, 28.3218544 ], [ 85.9291942, 28.3219726 ], [ 85.9293166, 28.3220699 ], [ 85.9293956, 28.3221516 ], [ 85.9294627, 28.3222541 ], [ 85.9296049, 28.3223827 ], [ 85.9297431, 28.3226225 ], [ 85.9299503, 28.3229371 ], [ 85.9301023, 28.323309 ], [ 85.9301635, 28.3235088 ], [ 85.9302168, 28.3235905 ], [ 85.9303274, 28.323726 ], [ 85.930438, 28.3238147 ], [ 85.930896, 28.3240667 ], [ 85.9310578, 28.3241674 ], [ 85.931125, 28.3242387 ], [ 85.9311684, 28.3242543 ], [ 85.9312375, 28.3242491 ], [ 85.9313006, 28.3242005 ], [ 85.9314329, 28.3240545 ], [ 85.9315257, 28.3239189 ], [ 85.9315928, 28.3237243 ], [ 85.9316145, 28.3234619 ], [ 85.9315968, 28.3233264 ], [ 85.9314941, 28.3231804 ], [ 85.9312812, 28.3228957 ], [ 85.931222, 28.3228279 ], [ 85.931068, 28.3227063 ], [ 85.9310324, 28.3225916 ], [ 85.9310996, 28.3224734 ], [ 85.9312338, 28.3224108 ], [ 85.9313641, 28.3223622 ], [ 85.9315536, 28.322171 ], [ 85.931689, 28.3219853 ], [ 85.9317794, 28.3216684 ], [ 85.9317327, 28.3213816 ], [ 85.9315655, 28.3210901 ], [ 85.9313917, 28.3207599 ], [ 85.9312457, 28.3206244 ], [ 85.9311952, 28.3205259 ] ] ] } },
{ "type": "Feature", "properties": { "water_type": "water", "name": "" }, "geometry": { "type": "Polygon", "coordinates": [ [ [ 85.9499384, 28.3113369 ], [ 85.9497904, 28.3113222 ], [ 85.9496118, 28.3113431 ], [ 85.9494959, 28.3113824 ], [ 85.9494443, 28.311391 ], [ 85.9493214, 28.3114389 ], [ 85.9492377, 28.311466 ], [ 85.9491916, 28.311482 ], [ 85.949126, 28.311525 ], [ 85.9490604, 28.3115754 ], [ 85.9490241, 28.3116061 ], [ 85.9489654, 28.3117155 ], [ 85.9488901, 28.3119551 ], [ 85.9487965, 28.3120362 ], [ 85.9486639, 28.3120829 ], [ 85.9485341, 28.3120977 ], [ 85.9484866, 28.3121075 ], [ 85.9484629, 28.3121247 ], [ 85.9484434, 28.3121702 ], [ 85.948449, 28.3122058 ], [ 85.9484336, 28.312255 ], [ 85.9483889, 28.3122931 ], [ 85.9483233, 28.312325 ], [ 85.948167, 28.3123557 ], [ 85.9481237, 28.3123668 ], [ 85.9480497, 28.3123987 ], [ 85.9480023, 28.3124663 ], [ 85.9479032, 28.3125192 ], [ 85.947825, 28.3125536 ], [ 85.9477482, 28.3125573 ], [ 85.9476435, 28.3125413 ], [ 85.9475835, 28.3125462 ], [ 85.9474746, 28.3125917 ], [ 85.9474118, 28.3126888 ], [ 85.9473043, 28.3128068 ], [ 85.9471898, 28.3129321 ], [ 85.9471312, 28.3130083 ], [ 85.9470614, 28.3130599 ], [ 85.9469483, 28.3131521 ], [ 85.9469079, 28.3132479 ], [ 85.9468534, 28.3133487 ], [ 85.9468492, 28.3134421 ], [ 85.9468004, 28.3135171 ], [ 85.9467697, 28.313592 ], [ 85.9467613, 28.3137248 ], [ 85.946732, 28.3137911 ], [ 85.946665, 28.3138685 ], [ 85.9465854, 28.3139521 ], [ 85.946524, 28.3140246 ], [ 85.9465016, 28.3141377 ], [ 85.9464989, 28.3142323 ], [ 85.9464472, 28.3143048 ], [ 85.9463718, 28.314397 ], [ 85.946295, 28.3144314 ], [ 85.946175, 28.3145014 ], [ 85.9461233, 28.3145481 ], [ 85.9460536, 28.3145678 ], [ 85.9459949, 28.3145653 ], [ 85.9458986, 28.314526 ], [ 85.9458456, 28.3144572 ], [ 85.9458176, 28.3143036 ], [ 85.9457813, 28.3141315 ], [ 85.9457758, 28.3140037 ], [ 85.9458246, 28.3138526 ], [ 85.9458525, 28.3137186 ], [ 85.9458386, 28.3136105 ], [ 85.9458107, 28.3135503 ], [ 85.9457283, 28.3134765 ], [ 85.9456962, 28.313436 ], [ 85.9456864, 28.3133721 ], [ 85.9456753, 28.3133106 ], [ 85.9456236, 28.3132479 ], [ 85.9455538, 28.3132098 ], [ 85.9454519, 28.3131496 ], [ 85.9453067, 28.3131005 ], [ 85.9452146, 28.313098 ], [ 85.9450932, 28.3131066 ], [ 85.9449466, 28.3131496 ], [ 85.9448852, 28.3131533 ], [ 85.9447735, 28.3131336 ], [ 85.9447037, 28.3130575 ], [ 85.944659, 28.3130206 ], [ 85.9444999, 28.3129886 ], [ 85.9443449, 28.3129124 ], [ 85.94419, 28.3129112 ], [ 85.9440574, 28.3129333 ], [ 85.9439848, 28.3129616 ], [ 85.9439276, 28.3130083 ], [ 85.943862, 28.3130353 ], [ 85.9437908, 28.3130464 ], [ 85.9436414, 28.3131275 ], [ 85.9434948, 28.3131963 ], [ 85.9434208, 28.313232 ], [ 85.9433524, 28.3133168 ], [ 85.9433134, 28.3133659 ], [ 85.9432743, 28.3133942 ], [ 85.9431961, 28.3134716 ], [ 85.943164, 28.3135134 ], [ 85.9431598, 28.3136301 ], [ 85.9431961, 28.3137665 ], [ 85.9431961, 28.3138022 ], [ 85.9431542, 28.3138833 ], [ 85.9431347, 28.3140271 ], [ 85.9431375, 28.314059 ], [ 85.9431445, 28.3141082 ], [ 85.9431347, 28.3141254 ], [ 85.9430886, 28.3141524 ], [ 85.9430593, 28.3142274 ], [ 85.9430733, 28.3143306 ], [ 85.943097, 28.3143933 ], [ 85.9432282, 28.31451 ], [ 85.9433385, 28.3146133 ], [ 85.9434795, 28.3147116 ], [ 85.9436079, 28.3147669 ], [ 85.9439304, 28.3148726 ], [ 85.9440923, 28.3149303 ], [ 85.9442765, 28.3150004 ], [ 85.9444161, 28.3150532 ], [ 85.9447031, 28.3151377 ], [ 85.9448162, 28.3151991 ], [ 85.9449558, 28.3152434 ], [ 85.9451233, 28.3152741 ], [ 85.9452587, 28.3152692 ], [ 85.9453466, 28.3152384 ], [ 85.9454388, 28.3152126 ], [ 85.9455965, 28.3152532 ], [ 85.9457989, 28.315365 ], [ 85.9458757, 28.3153994 ], [ 85.9460013, 28.31544 ], [ 85.9461186, 28.3154609 ], [ 85.94624, 28.3154658 ], [ 85.9463866, 28.315456 ], [ 85.9465402, 28.3153957 ], [ 85.9465778, 28.315338 ], [ 85.9465988, 28.3152864 ], [ 85.9465834, 28.315204 ], [ 85.9466044, 28.3151328 ], [ 85.946649, 28.315059 ], [ 85.9467174, 28.3150037 ], [ 85.9467984, 28.315005 ], [ 85.9468528, 28.3150541 ], [ 85.9469073, 28.3151229 ], [ 85.9469827, 28.3152544 ], [ 85.9470552, 28.3153122 ], [ 85.9471334, 28.3154394 ], [ 85.9471709, 28.315601 ], [ 85.9472123, 28.3156671 ], [ 85.9472755, 28.3157036 ], [ 85.9473525, 28.3157853 ], [ 85.9473781, 28.3158583 ], [ 85.9473525, 28.3159469 ], [ 85.9473288, 28.3160268 ], [ 85.9473012, 28.3160929 ], [ 85.947315, 28.3161415 ], [ 85.9473545, 28.3161641 ], [ 85.9474295, 28.3161832 ], [ 85.9475598, 28.3161798 ], [ 85.9477532, 28.3161937 ], [ 85.947923, 28.3162267 ], [ 85.9481737, 28.3162267 ], [ 85.9483751, 28.3162163 ], [ 85.9484975, 28.3161763 ], [ 85.948612, 28.3161607 ], [ 85.9487502, 28.3160946 ], [ 85.9488429, 28.3160564 ], [ 85.9488647, 28.3160668 ], [ 85.9488686, 28.3161068 ], [ 85.9488587, 28.3161398 ], [ 85.948762, 28.3161972 ], [ 85.9486929, 28.316225 ], [ 85.9485291, 28.316251 ], [ 85.9484758, 28.3162719 ], [ 85.9484856, 28.316331 ], [ 85.9485251, 28.3163727 ], [ 85.9486159, 28.3163901 ], [ 85.9487067, 28.3164161 ], [ 85.9487778, 28.3164787 ], [ 85.9488232, 28.3166038 ], [ 85.9488114, 28.3166786 ], [ 85.9487561, 28.3167602 ], [ 85.948687, 28.3168941 ], [ 85.9486218, 28.3170296 ], [ 85.9486199, 28.3171565 ], [ 85.9486594, 28.3172069 ], [ 85.9487265, 28.3172347 ], [ 85.9488074, 28.3172347 ], [ 85.9489259, 28.3172329 ], [ 85.9490443, 28.3172295 ], [ 85.9492476, 28.3172399 ], [ 85.9493937, 28.3172329 ], [ 85.9495003, 28.3172051 ], [ 85.9496247, 28.3171808 ], [ 85.9497116, 28.3171964 ], [ 85.9499781, 28.3171895 ], [ 85.95, 28.317191515960268 ], [ 85.95, 28.31583971003861 ], [ 85.9499564, 28.3158496 ], [ 85.9498517, 28.3159 ], [ 85.9497372, 28.3160373 ], [ 85.9496741, 28.3160824 ], [ 85.9494095, 28.3161224 ], [ 85.9491509, 28.3161242 ], [ 85.9490127, 28.3160946 ], [ 85.9489318, 28.3160529 ], [ 85.9488568, 28.3159747 ], [ 85.9488528, 28.3158965 ], [ 85.9489377, 28.3157071 ], [ 85.9490186, 28.3154742 ], [ 85.9490601, 28.3152952 ], [ 85.9491766, 28.315031 ], [ 85.9493345, 28.3148294 ], [ 85.9495549, 28.3147677 ], [ 85.9496891, 28.3147381 ], [ 85.9497207, 28.3147034 ], [ 85.9497404, 28.3145748 ], [ 85.9498135, 28.314401 ], [ 85.9498806, 28.3143106 ], [ 85.95, 28.314250094891701 ], [ 85.95, 28.31134047615063 ], [ 85.9499384, 28.3113369 ] ] ] } },
{ "type": "Feature", "properties": { "water_type": "stream", "name": "" }, "geometry": { "type": "LineString", "coordinates": [ [ 85.9311684, 28.3242543 ], [ 85.9311179, 28.324527 ], [ 85.9311128, 28.3256571 ], [ 85.9311445, 28.3262307 ], [ 85.9313436, 28.3265205 ], [ 85.9315707, 28.3268665 ], [ 85.9318081, 28.3270912 ], [ 85.931974, 28.327235 ], [ 85.9324711, 28.3273849 ], [ 85.932586, 28.3276455 ], [ 85.9327953, 28.3279353 ], [ 85.9327519, 28.3281578 ], [ 85.9326651, 28.3284184 ], [ 85.932734, 28.3285981 ], [ 85.9328463, 28.3287441 ], [ 85.9331347, 28.3287644 ], [ 85.9333159, 28.3287711 ], [ 85.9333874, 28.328825 ], [ 85.9334129, 28.3289688 ], [ 85.9333976, 28.3291598 ], [ 85.9333583, 28.3294006 ], [ 85.9333787, 28.3295916 ], [ 85.9334476, 28.3297286 ], [ 85.9334042, 28.3302064 ], [ 85.9332664, 28.3303749 ], [ 85.9328784, 28.3305703 ], [ 85.9323016, 28.3309163 ], [ 85.9320617, 28.3310983 ], [ 85.9319928, 28.3312465 ], [ 85.9319877, 28.3314398 ], [ 85.9320158, 28.3315745 ], [ 85.9322863, 28.3319318 ], [ 85.9327435, 28.3326652 ], [ 85.9331983, 28.3331323 ], [ 85.933534, 28.3333547 ], [ 85.9340457, 28.3334435 ], [ 85.9343111, 28.3335401 ], [ 85.9344668, 28.3336681 ], [ 85.9345612, 28.333877 ], [ 85.9345051, 28.3342679 ], [ 85.9344974, 28.3346184 ], [ 85.9347628, 28.3352519 ], [ 85.9348215, 28.3354653 ], [ 85.9349747, 28.3355956 ], [ 85.9350717, 28.3356293 ], [ 85.9351967, 28.3356315 ], [ 85.9353754, 28.3355799 ], [ 85.9354902, 28.3355889 ], [ 85.9356817, 28.335672 ], [ 85.9358169, 28.3358517 ], [ 85.9360415, 28.3360471 ], [ 85.9362968, 28.3362516 ], [ 85.9365214, 28.3364448 ], [ 85.9366184, 28.3365773 ], [ 85.9366847, 28.3368267 ], [ 85.9368659, 28.3369794 ], [ 85.9372284, 28.3370715 ], [ 85.9374657, 28.3370581 ], [ 85.9377797, 28.3370288 ], [ 85.9379893, 28.3371227 ], [ 85.9381481, 28.3371831 ], [ 85.9382997, 28.3373388 ], [ 85.9384152, 28.3376152 ], [ 85.9388303, 28.3380123 ], [ 85.9389205, 28.338241 ], [ 85.9392093, 28.3386286 ], [ 85.9394692, 28.3388796 ], [ 85.9398373, 28.3389209 ], [ 85.9402055, 28.3390321 ], [ 85.9404582, 28.3392703 ], [ 85.9406928, 28.3396325 ], [ 85.940783, 28.3399089 ], [ 85.9408444, 28.3402679 ], [ 85.9407758, 28.3405125 ], [ 85.9409057, 28.3408175 ], [ 85.9411512, 28.3410208 ], [ 85.9414363, 28.3411987 ], [ 85.9418334, 28.3413004 ], [ 85.9423892, 28.3413957 ], [ 85.9427791, 28.3414115 ], [ 85.9430678, 28.3415672 ], [ 85.9433133, 28.341761 ], [ 85.9438583, 28.3420247 ], [ 85.9442156, 28.3421422 ], [ 85.9444936, 28.3423201 ], [ 85.9449808, 28.3426791 ], [ 85.9456197, 28.3430635 ], [ 85.945894, 28.3431651 ], [ 85.946107, 28.3431334 ], [ 85.9463633, 28.3431492 ], [ 85.9467098, 28.3432318 ], [ 85.9470455, 28.3434542 ], [ 85.9473054, 28.3435813 ], [ 85.9476807, 28.3439816 ], [ 85.9479478, 28.3442357 ], [ 85.948168, 28.3444104 ], [ 85.9486336, 28.3445724 ], [ 85.9489007, 28.3446836 ], [ 85.9493122, 28.3449473 ], [ 85.9498825, 28.3452872 ], [ 85.95, 28.345385939495802 ] ] } },
{ "type": "Feature", "properties": { "water_type": "water", "name": "" }, "geometry": { "type": "Polygon", "coordinates": [ [ [ 85.9264898, 28.3225301 ], [ 85.9263064, 28.3224601 ], [ 85.9260854, 28.3224329 ], [ 85.9259572, 28.322429 ], [ 85.9258777, 28.3223959 ], [ 85.9257097, 28.322287 ], [ 85.925407, 28.3221644 ], [ 85.925228, 28.3221021 ], [ 85.92506, 28.3220905 ], [ 85.9248722, 28.3220846 ], [ 85.9245783, 28.3220185 ], [ 85.9243175, 28.3219387 ], [ 85.9240214, 28.3217909 ], [ 85.9237717, 28.321715 ], [ 85.9236236, 28.3216625 ], [ 85.9234756, 28.3216255 ], [ 85.9233562, 28.3216178 ], [ 85.9232015, 28.3216392 ], [ 85.9230778, 28.3216878 ], [ 85.9229761, 28.3216625 ], [ 85.9228988, 28.3216158 ], [ 85.9227574, 28.321608 ], [ 85.9226159, 28.3216003 ], [ 85.9223817, 28.3215594 ], [ 85.9222292, 28.321538 ], [ 85.9221519, 28.3215594 ], [ 85.9221209, 28.321608 ], [ 85.9221408, 28.3217073 ], [ 85.9221364, 28.3218298 ], [ 85.9221364, 28.3219426 ], [ 85.9221541, 28.3220496 ], [ 85.9221475, 28.322178 ], [ 85.9221983, 28.3222694 ], [ 85.9222005, 28.3224192 ], [ 85.9223773, 28.3228277 ], [ 85.9224414, 28.3230748 ], [ 85.9226668, 28.3232966 ], [ 85.9227485, 28.3233997 ], [ 85.9228612, 28.3235767 ], [ 85.9230645, 28.3237148 ], [ 85.923217, 28.3237654 ], [ 85.9236303, 28.3238879 ], [ 85.9237562, 28.3239346 ], [ 85.9238225, 28.3239677 ], [ 85.9239109, 28.3239677 ], [ 85.9241164, 28.3239366 ], [ 85.9242313, 28.3239191 ], [ 85.9244037, 28.3239229 ], [ 85.924565, 28.3239229 ], [ 85.9247308, 28.323886 ], [ 85.9250755, 28.3238335 ], [ 85.9251727, 28.3238315 ], [ 85.9253318, 28.3238626 ], [ 85.9255042, 28.3238626 ], [ 85.925776, 28.3238626 ], [ 85.9262533, 28.3239366 ], [ 85.9264456, 28.3239385 ], [ 85.9265892, 28.323921 ], [ 85.926713, 28.3239249 ], [ 85.9268235, 28.3239327 ], [ 85.9270157, 28.3238665 ], [ 85.9270864, 28.3237946 ], [ 85.9270798, 28.3236234 ], [ 85.9270511, 28.3234191 ], [ 85.926998, 28.3231876 ], [ 85.9268809, 28.3229017 ], [ 85.9267771, 28.3227441 ], [ 85.9266666, 28.3226605 ], [ 85.9264898, 28.3225301 ] ] ] } },
{ "type": "Feature", "properties": { "water_type": "stream", "name": "" }, "geometry": { "type": "LineString", "coordinates": [ [ 85.917548, 28.3369577 ], [ 85.9182817, 28.337728 ], [ 85.9190595, 28.3384515 ], [ 85.9194131, 28.3391906 ], [ 85.9196694, 28.3403498 ], [ 85.9201468, 28.34091 ], [ 85.920465, 28.3415168 ], [ 85.9208186, 28.3423259 ], [ 85.9215876, 28.3439985 ], [ 85.9221798, 28.3456556 ], [ 85.9223389, 28.3469936 ], [ 85.9219146, 28.3480516 ], [ 85.9219765, 28.3488607 ], [ 85.9224538, 28.3499731 ], [ 85.922456220567753, 28.35 ] ] } },
{ "type": "Feature", "properties": { "water_type": "stream", "name": "" }, "geometry": { "type": "LineString", "coordinates": [ [ 85.9297997, 28.2857516 ], [ 85.9305516, 28.284921 ], [ 85.930795, 28.2846521 ], [ 85.9317991, 28.2834834 ], [ 85.9330214, 28.2822302 ], [ 85.9332232, 28.2820925 ], [ 85.9333348, 28.2820163 ], [ 85.9336719, 28.2817864 ], [ 85.9345572, 28.2811823 ], [ 85.9352741, 28.2806931 ], [ 85.9359768, 28.2799765 ], [ 85.9361812, 28.2798151 ], [ 85.9376226, 28.2789393 ], [ 85.9390545, 28.2779551 ], [ 85.9410976, 28.2769094 ], [ 85.9417175, 28.2766788 ], [ 85.9420318, 28.2765711 ], [ 85.942739, 28.2760636 ], [ 85.9439701, 28.2754869 ], [ 85.9462576, 28.2746488 ], [ 85.9471656, 28.2746181 ], [ 85.9484578, 28.2744258 ], [ 85.95, 28.274077549568819 ] ] } },
{ "type": "Feature", "properties": { "water_type": "water", "name": "" }, "geometry": { "type": "Polygon", "coordinates": [ [ [ 85.8791127, 28.3415829 ], [ 85.879335, 28.341553 ], [ 85.8794832, 28.3414906 ], [ 85.8796776, 28.3412488 ], [ 85.8799061, 28.3408521 ], [ 85.8799431, 28.3405505 ], [ 85.8797919, 28.3404554 ], [ 85.879585, 28.340488 ], [ 85.8794214, 28.3407244 ], [ 85.8793165, 28.3408141 ], [ 85.8791899, 28.3408684 ], [ 85.8789059, 28.3409119 ], [ 85.8785509, 28.3408847 ], [ 85.8783071, 28.3408983 ], [ 85.8782453, 28.3409526 ], [ 85.8781929, 28.3410966 ], [ 85.8782114, 28.3412705 ], [ 85.8782453, 28.3414417 ], [ 85.8783132, 28.3415313 ], [ 85.8784305, 28.3416047 ], [ 85.8786219, 28.3416427 ], [ 85.8788689, 28.3416427 ], [ 85.8791127, 28.3415829 ] ] ] } },
{ "type": "Feature", "properties": { "water_type": "water", "name": "" }, "geometry": { "type": "Polygon", "coordinates": [ [ [ 85.8710408, 28.3387528 ], [ 85.8712136, 28.3386034 ], [ 85.8717446, 28.3383235 ], [ 85.8718557, 28.3382339 ], [ 85.8720131, 28.3380627 ], [ 85.8720595, 28.3378562 ], [ 85.8720965, 28.3377149 ], [ 85.8720718, 28.3375736 ], [ 85.872007, 28.3374758 ], [ 85.8717971, 28.3374242 ], [ 85.8716643, 28.3374106 ], [ 85.8715686, 28.3374188 ], [ 85.8713309, 28.3375927 ], [ 85.8710562, 28.3379269 ], [ 85.8709513, 28.3381333 ], [ 85.8708833, 28.3382176 ], [ 85.8707506, 28.338386 ], [ 85.8706765, 28.3385001 ], [ 85.8706426, 28.3385898 ], [ 85.8706426, 28.3386577 ], [ 85.8706518, 28.3387256 ], [ 85.8707136, 28.338761 ], [ 85.8708587, 28.3387881 ], [ 85.8710408, 28.3387528 ] ] ] } },
{ "type": "Feature", "properties": { "water_type": "water", "name": "" }, "geometry": { "type": "Polygon", "coordinates": [ [ [ 85.861482, 28.3440737 ], [ 85.8615654, 28.3442245 ], [ 85.8615947, 28.3442652 ], [ 85.861658, 28.3442734 ], [ 85.8617043, 28.3442639 ], [ 85.8617367, 28.344219 ], [ 85.861746, 28.3441579 ], [ 85.8617491, 28.3441076 ], [ 85.8617799, 28.3440628 ], [ 85.861763, 28.3439338 ], [ 85.8617151, 28.343677 ], [ 85.8616688, 28.3435792 ], [ 85.8616117, 28.3434909 ], [ 85.8616009, 28.3434108 ], [ 85.8615978, 28.3432776 ], [ 85.8615716, 28.3432043 ], [ 85.861499, 28.3431418 ], [ 85.8614342, 28.3431282 ], [ 85.8613709, 28.3431404 ], [ 85.8612955, 28.3431932 ], [ 85.8612125, 28.3433007 ], [ 85.861182, 28.3434083 ], [ 85.8611623, 28.3434929 ], [ 85.8611383, 28.3435793 ], [ 85.8611383, 28.3436331 ], [ 85.861158, 28.3437234 ], [ 85.8612213, 28.3438252 ], [ 85.8613762, 28.3439674 ], [ 85.861482, 28.3440737 ] ] ] } },
{ "type": "Feature", "properties": { "water_type": "water", "name": "" }, "geometry": { "type": "Polygon", "coordinates": [ [ [ 85.8796197, 28.3386817 ], [ 85.8797802, 28.3386573 ], [ 85.8798481, 28.3386274 ], [ 85.8798821, 28.3385894 ], [ 85.8798883, 28.3384753 ], [ 85.8799346, 28.3384046 ], [ 85.8799747, 28.3383177 ], [ 85.8799932, 28.3381655 ], [ 85.8799306, 28.3379779 ], [ 85.8798433, 28.3378012 ], [ 85.8796119, 28.3376936 ], [ 85.8794286, 28.3376897 ], [ 85.8792758, 28.3377397 ], [ 85.8792539, 28.3378204 ], [ 85.8791317, 28.3379433 ], [ 85.8790575, 28.3380279 ], [ 85.8789134, 28.3382968 ], [ 85.8787825, 28.3383429 ], [ 85.878442, 28.3383737 ], [ 85.8781276, 28.338389 ], [ 85.8780753, 28.3384697 ], [ 85.8780665, 28.3385235 ], [ 85.8781582, 28.3385658 ], [ 85.8784114, 28.3385581 ], [ 85.8786253, 28.3385466 ], [ 85.8787519, 28.3385427 ], [ 85.8788829, 28.3385427 ], [ 85.8789964, 28.3385389 ], [ 85.8791012, 28.338585 ], [ 85.879219, 28.3386503 ], [ 85.8796197, 28.3386817 ] ] ] } },
{ "type": "Feature", "properties": { "water_type": "water", "name": "" }, "geometry": { "type": "Polygon", "coordinates": [ [ [ 85.9138471, 28.3328555 ], [ 85.9137761, 28.3327902 ], [ 85.9136403, 28.3326408 ], [ 85.9135323, 28.332581 ], [ 85.9134273, 28.3325837 ], [ 85.9132699, 28.3326408 ], [ 85.9131618, 28.3326979 ], [ 85.9131001, 28.3327332 ], [ 85.9130291, 28.332706 ], [ 85.9128408, 28.3327522 ], [ 85.9127328, 28.3328582 ], [ 85.9126741, 28.3329478 ], [ 85.9125722, 28.333119 ], [ 85.9125414, 28.3332005 ], [ 85.9124549, 28.333263 ], [ 85.9123253, 28.3333472 ], [ 85.9122697, 28.3334097 ], [ 85.9122203, 28.3335891 ], [ 85.9122203, 28.3337494 ], [ 85.9122975, 28.3339178 ], [ 85.9124117, 28.3340319 ], [ 85.9124673, 28.3340917 ], [ 85.9124642, 28.3341515 ], [ 85.9124642, 28.3342167 ], [ 85.9124982, 28.3342955 ], [ 85.9125321, 28.3343145 ], [ 85.9126278, 28.3343172 ], [ 85.9127112, 28.3343009 ], [ 85.9127544, 28.3342249 ], [ 85.912847, 28.3342113 ], [ 85.9129056, 28.334252 ], [ 85.913097, 28.33432 ], [ 85.9133285, 28.3343037 ], [ 85.913736, 28.3342086 ], [ 85.9138749, 28.3341162 ], [ 85.9139953, 28.3340211 ], [ 85.9140879, 28.33382 ], [ 85.9141373, 28.3336026 ], [ 85.9141496, 28.3333853 ], [ 85.914091, 28.3331272 ], [ 85.9139922, 28.3329804 ], [ 85.9138471, 28.3328555 ] ] ] } },
{ "type": "Feature", "properties": { "water_type": "water", "name": "" }, "geometry": { "type": "Polygon", "coordinates": [ [ [ 85.9070637, 28.3250985 ], [ 85.9072208, 28.3251523 ], [ 85.9073867, 28.3252215 ], [ 85.9075133, 28.3253368 ], [ 85.9076618, 28.3253675 ], [ 85.9078582, 28.3254328 ], [ 85.9080154, 28.3255135 ], [ 85.9081158, 28.3255827 ], [ 85.9082162, 28.3255789 ], [ 85.9084519, 28.3255443 ], [ 85.9086964, 28.3254597 ], [ 85.9088841, 28.325429 ], [ 85.9090325, 28.3253675 ], [ 85.9091635, 28.3252253 ], [ 85.9091897, 28.324964 ], [ 85.9092639, 28.3247181 ], [ 85.9093294, 28.3245759 ], [ 85.9094691, 28.3245298 ], [ 85.9096219, 28.324476 ], [ 85.9097878, 28.324303 ], [ 85.909862, 28.324134 ], [ 85.9099144, 28.3239726 ], [ 85.9100235, 28.3237958 ], [ 85.9100803, 28.3234192 ], [ 85.9101807, 28.3232155 ], [ 85.9102199, 28.3231079 ], [ 85.9101676, 28.3229503 ], [ 85.9100017, 28.3228082 ], [ 85.909862, 28.3227544 ], [ 85.9096699, 28.3224738 ], [ 85.9095084, 28.3223316 ], [ 85.909229, 28.3223201 ], [ 85.9090718, 28.3222817 ], [ 85.9089409, 28.3221933 ], [ 85.9088055, 28.3220396 ], [ 85.9086047, 28.3218743 ], [ 85.9081682, 28.3216207 ], [ 85.9078015, 28.3214593 ], [ 85.9074959, 28.3214209 ], [ 85.9070986, 28.3214401 ], [ 85.9068017, 28.3214862 ], [ 85.9064088, 28.3216168 ], [ 85.9060203, 28.3218244 ], [ 85.9056798, 28.3218782 ], [ 85.9055488, 28.3219896 ], [ 85.9054091, 28.3221664 ], [ 85.9053044, 28.322593 ], [ 85.9052782, 28.3227928 ], [ 85.9053262, 28.3229696 ], [ 85.9055008, 28.3231194 ], [ 85.9057147, 28.3233615 ], [ 85.9059505, 28.3238188 ], [ 85.9060814, 28.3241378 ], [ 85.9060814, 28.3243223 ], [ 85.9060552, 28.324549 ], [ 85.9061164, 28.3246989 ], [ 85.906291, 28.3248334 ], [ 85.9064918, 28.324941 ], [ 85.9066664, 28.3250178 ], [ 85.9068629, 28.3250447 ], [ 85.9070637, 28.3250985 ] ] ] } },
{ "type": "Feature", "properties": { "water_type": "water", "name": "" }, "geometry": { "type": "Polygon", "coordinates": [ [ [ 85.9038231, 28.3207307 ], [ 85.9038454, 28.3206404 ], [ 85.9039301, 28.3205579 ], [ 85.9040661, 28.3202694 ], [ 85.9041687, 28.3200868 ], [ 85.9042066, 28.3200378 ], [ 85.9042757, 28.3200338 ], [ 85.9043381, 28.3200711 ], [ 85.9043894, 28.3201104 ], [ 85.9044764, 28.3201065 ], [ 85.9048889, 28.3200672 ], [ 85.905045, 28.3200495 ], [ 85.9051141, 28.3199789 ], [ 85.9051342, 28.319922 ], [ 85.9051431, 28.3197708 ], [ 85.9050918, 28.3196295 ], [ 85.9050405, 28.3195255 ], [ 85.9049536, 28.3194587 ], [ 85.9048911, 28.3193802 ], [ 85.9048398, 28.3193409 ], [ 85.9046102, 28.3192467 ], [ 85.9044987, 28.3191368 ], [ 85.9043582, 28.3189052 ], [ 85.9043159, 28.318703 ], [ 85.9042289, 28.3185695 ], [ 85.9041553, 28.3184832 ], [ 85.9041352, 28.3183752 ], [ 85.9040728, 28.3182947 ], [ 85.9040171, 28.3182025 ], [ 85.9039368, 28.3181514 ], [ 85.9038208, 28.3181181 ], [ 85.9036982, 28.3181122 ], [ 85.9035466, 28.3181318 ], [ 85.9033526, 28.3181259 ], [ 85.9032589, 28.3181259 ], [ 85.9031854, 28.3181691 ], [ 85.9030873, 28.3183065 ], [ 85.9030159, 28.3184557 ], [ 85.9028621, 28.3185931 ], [ 85.9028018, 28.3188286 ], [ 85.9028308, 28.3190642 ], [ 85.9028175, 28.3191604 ], [ 85.9027171, 28.3193704 ], [ 85.9026368, 28.3195569 ], [ 85.9026235, 28.3197806 ], [ 85.9026658, 28.3198925 ], [ 85.9027127, 28.3199612 ], [ 85.902726, 28.3200005 ], [ 85.9027171, 28.3200554 ], [ 85.9026725, 28.3202341 ], [ 85.9026926, 28.3204657 ], [ 85.9027104, 28.3205638 ], [ 85.9027706, 28.3206109 ], [ 85.9030422, 28.320732 ], [ 85.90314, 28.3208236 ], [ 85.9032062, 28.320968 ], [ 85.9032219, 28.3211901 ], [ 85.9032156, 28.3213538 ], [ 85.9032661, 28.321587 ], [ 85.9032724, 28.3217258 ], [ 85.9033039, 28.3217508 ], [ 85.9033638, 28.3217536 ], [ 85.9034269, 28.321698 ], [ 85.9034364, 28.3215842 ], [ 85.9034175, 28.3214676 ], [ 85.9034679, 28.3213844 ], [ 85.903553, 28.3213372 ], [ 85.9036792, 28.3213233 ], [ 85.903799, 28.3211567 ], [ 85.9038715, 28.3210485 ], [ 85.9038936, 28.3209541 ], [ 85.9038589, 28.3208236 ], [ 85.9038231, 28.3207307 ] ] ] } },
{ "type": "Feature", "properties": { "water_type": "water", "name": "" }, "geometry": { "type": "Polygon", "coordinates": [ [ [ 85.9361812, 28.2798151 ], [ 85.9361701, 28.2797426 ], [ 85.9361083, 28.2796358 ], [ 85.9360275, 28.2795793 ], [ 85.9359681, 28.2795563 ], [ 85.9358754, 28.2795584 ], [ 85.9357827, 28.2795981 ], [ 85.9356401, 28.2797572 ], [ 85.9355973, 28.2798472 ], [ 85.9355973, 28.2799142 ], [ 85.9356401, 28.2799435 ], [ 85.9357328, 28.2799519 ], [ 85.9358825, 28.2799603 ], [ 85.9359768, 28.2799765 ], [ 85.9361812, 28.2798151 ] ] ] } },
{ "type": "Feature", "properties": { "water_type": "water", "name": "" }, "geometry": { "type": "Polygon", "coordinates": [ [ [ 85.9293366, 28.2863592 ], [ 85.9294223, 28.2863029 ], [ 85.9294828, 28.2861919 ], [ 85.9294458, 28.2861164 ], [ 85.9294173, 28.2860987 ], [ 85.9293248, 28.2860972 ], [ 85.9292223, 28.2861016 ], [ 85.9290778, 28.2861416 ], [ 85.9289131, 28.2862541 ], [ 85.9287517, 28.2863666 ], [ 85.9286979, 28.2865072 ], [ 85.9286962, 28.2865471 ], [ 85.9287315, 28.28659 ], [ 85.9288189, 28.2866108 ], [ 85.9289568, 28.2865797 ], [ 85.9291467, 28.2865027 ], [ 85.9292475, 28.2864302 ], [ 85.9293366, 28.2863592 ] ] ] } },
{ "type": "Feature", "properties": { "water_type": "water", "name": "" }, "geometry": { "type": "Polygon", "coordinates": [ [ [ 85.9344224, 28.2810268 ], [ 85.9342712, 28.2809676 ], [ 85.9340123, 28.2809676 ], [ 85.9337535, 28.2810061 ], [ 85.9335552, 28.2810357 ], [ 85.9334039, 28.2811363 ], [ 85.9332022, 28.2813583 ], [ 85.9330543, 28.2817846 ], [ 85.9330308, 28.2819563 ], [ 85.9330913, 28.2820777 ], [ 85.9332232, 28.2820925 ], [ 85.9333348, 28.2820163 ], [ 85.933367, 28.2818912 ], [ 85.9334446, 28.2817808 ], [ 85.9336719, 28.2817864 ], [ 85.9337964, 28.2818017 ], [ 85.9340341, 28.2817724 ], [ 85.9343288, 28.2816092 ], [ 85.9344762, 28.281471 ], [ 85.9345572, 28.2811823 ], [ 85.9344224, 28.2810268 ] ] ] } },
{ "type": "Feature", "properties": { "water_type": "water", "name": "" }, "geometry": { "type": "Polygon", "coordinates": [ [ [ 85.9304639, 28.2849295 ], [ 85.9303142, 28.2850405 ], [ 85.9302191, 28.2851263 ], [ 85.930086, 28.285164 ], [ 85.9298364, 28.2852205 ], [ 85.9297532, 28.2853 ], [ 85.9296486, 28.2854277 ], [ 85.9295845, 28.2856244 ], [ 85.9295797, 28.2857291 ], [ 85.9296629, 28.2858505 ], [ 85.9297841, 28.2859426 ], [ 85.929884, 28.2859593 ], [ 85.9299957, 28.2858965 ], [ 85.930086, 28.2858275 ], [ 85.9302001, 28.2857354 ], [ 85.9303213, 28.2856265 ], [ 85.9304425, 28.2855512 ], [ 85.9304829, 28.2854716 ], [ 85.9305281, 28.2852519 ], [ 85.93054, 28.285143 ], [ 85.9305946, 28.2850405 ], [ 85.9306065, 28.2849756 ], [ 85.9305516, 28.284921 ], [ 85.9304639, 28.2849295 ] ] ] } },
{ "type": "Feature", "properties": { "water_type": "water", "name": "" }, "geometry": { "type": "Polygon", "coordinates": [ [ [ 85.9259893, 28.2773717 ], [ 85.9263529, 28.2774575 ], [ 85.9265455, 28.2774407 ], [ 85.9267095, 28.2773382 ], [ 85.9267927, 28.2772314 ], [ 85.9268331, 28.2769719 ], [ 85.9268283, 28.276706 ], [ 85.9267237, 28.2765093 ], [ 85.9264456, 28.2763418 ], [ 85.9263102, 28.2762999 ], [ 85.9261723, 28.2762978 ], [ 85.9260582, 28.276325 ], [ 85.9258134, 28.2764004 ], [ 85.9256209, 28.276593 ], [ 85.9255044, 28.2766746 ], [ 85.9253214, 28.2767395 ], [ 85.925117, 28.2768149 ], [ 85.9250409, 28.2769091 ], [ 85.9250552, 28.27702 ], [ 85.925117, 28.2770807 ], [ 85.9252334, 28.277133 ], [ 85.9253737, 28.2771812 ], [ 85.9256066, 28.2772565 ], [ 85.9259893, 28.2773717 ] ] ] } },
{ "type": "Feature", "properties": { "water_type": "water", "name": "" }, "geometry": { "type": "Polygon", "coordinates": [ [ [ 85.925796, 28.2877105 ], [ 85.9257926, 28.287894 ], [ 85.9258262, 28.287971 ], [ 85.9259237, 28.2880568 ], [ 85.9260783, 28.2881072 ], [ 85.9263204, 28.2880983 ], [ 85.9264985, 28.2880716 ], [ 85.926791, 28.2880361 ], [ 85.9271439, 28.2880983 ], [ 85.9273019, 28.2880776 ], [ 85.9274431, 28.2880213 ], [ 85.9275238, 28.2878082 ], [ 85.9275675, 28.2877105 ], [ 85.9276481, 28.2875448 ], [ 85.9276481, 28.2873672 ], [ 85.927638, 28.2871866 ], [ 85.9276784, 28.2870149 ], [ 85.9278028, 28.2867929 ], [ 85.927833, 28.2866834 ], [ 85.9278196, 28.2865502 ], [ 85.9277254, 28.2864555 ], [ 85.927554, 28.2863815 ], [ 85.9273792, 28.2863844 ], [ 85.9272111, 28.2864318 ], [ 85.9270632, 28.2864791 ], [ 85.9268548, 28.2864939 ], [ 85.9265994, 28.2865176 ], [ 85.9261825, 28.2866331 ], [ 85.9258666, 28.2867041 ], [ 85.925675, 28.2867929 ], [ 85.9256145, 28.2868935 ], [ 85.9255674, 28.2871215 ], [ 85.9255741, 28.2872488 ], [ 85.9256548, 28.2874264 ], [ 85.9258027, 28.2876158 ], [ 85.925796, 28.2877105 ] ] ] } },
{ "type": "Feature", "properties": { "water_type": "water", "name": "" }, "geometry": { "type": "Polygon", "coordinates": [ [ [ 85.9315486, 28.2729398 ], [ 85.9318075, 28.2730257 ], [ 85.9319386, 28.2731056 ], [ 85.9321133, 28.2732566 ], [ 85.9322142, 28.2733395 ], [ 85.932426, 28.2733661 ], [ 85.9325772, 28.2733631 ], [ 85.9328629, 28.2733099 ], [ 85.9330411, 28.2732743 ], [ 85.9331957, 28.2732092 ], [ 85.93331, 28.2731411 ], [ 85.933347, 28.2730049 ], [ 85.9332999, 28.2728717 ], [ 85.9332327, 28.2727592 ], [ 85.9331924, 28.2726378 ], [ 85.9331688, 28.2724898 ], [ 85.9329907, 28.2721997 ], [ 85.9326982, 28.2719688 ], [ 85.9322512, 28.2716935 ], [ 85.9319688, 28.2714537 ], [ 85.9318814, 28.2713234 ], [ 85.9316125, 28.2711576 ], [ 85.9312562, 28.271054 ], [ 85.9308898, 28.2709948 ], [ 85.9305066, 28.2710037 ], [ 85.9302578, 28.2710895 ], [ 85.9301368, 28.2711843 ], [ 85.9300259, 28.2713589 ], [ 85.9299755, 28.2714685 ], [ 85.9298242, 28.2715425 ], [ 85.9297704, 28.2716047 ], [ 85.9297267, 28.2717023 ], [ 85.9297637, 28.2718326 ], [ 85.9297738, 28.2720813 ], [ 85.9298108, 28.272327 ], [ 85.9298814, 28.2724188 ], [ 85.9300158, 28.2725135 ], [ 85.9302209, 28.2725372 ], [ 85.9305469, 28.272629 ], [ 85.9307688, 28.2726971 ], [ 85.9309906, 28.2727592 ], [ 85.9315486, 28.2729398 ] ] ] } },
{ "type": "Feature", "properties": { "water_type": "stream", "name": "" }, "geometry": { "type": "LineString", "coordinates": [ [ 85.8757988, 28.2870196 ], [ 85.8762434, 28.2859484 ], [ 85.8763781, 28.2854387 ], [ 85.8764579, 28.2846522 ], [ 85.8763681, 28.284125 ], [ 85.8762334, 28.2836153 ], [ 85.8762592, 28.2831768 ], [ 85.8764815, 28.2826735 ], [ 85.8766755, 28.2825337 ], [ 85.8768272, 28.2821391 ], [ 85.8768625, 28.2818378 ], [ 85.8774347, 28.2805484 ], [ 85.8777169, 28.2797717 ], [ 85.8795568, 28.2782176 ], [ 85.8800657, 28.2781605 ], [ 85.880874, 28.278266 ], [ 85.8814827, 28.2783011 ], [ 85.8824406, 28.2781166 ], [ 85.8830294, 28.2777826 ], [ 85.8836968, 28.2770759 ], [ 85.8839861, 28.2764701 ], [ 85.8841131, 28.2760506 ], [ 85.884279, 28.2754603 ], [ 85.8842437, 28.2748326 ], [ 85.8841731, 28.2743604 ], [ 85.8841519, 28.2733443 ], [ 85.8841766, 28.2726639 ], [ 85.8840673, 28.2722537 ], [ 85.8836369, 28.2710575 ], [ 85.8834781, 28.270464 ], [ 85.8831923, 28.269855 ], [ 85.883157, 28.2694479 ], [ 85.8833158, 28.2689663 ], [ 85.8835769, 28.2683418 ], [ 85.8836439, 28.2679005 ], [ 85.883591, 28.2676768 ], [ 85.8833793, 28.2670988 ], [ 85.8833828, 28.2665116 ], [ 85.883531, 28.2659895 ], [ 85.8836862, 28.265424 ], [ 85.8838097, 28.2651443 ], [ 85.8842084, 28.2646782 ], [ 85.8844518, 28.2644514 ], [ 85.884727, 28.2643395 ], [ 85.885101, 28.264181 ], [ 85.8853656, 28.2639822 ], [ 85.8854891, 28.263718 ], [ 85.8854467, 28.2635658 ], [ 85.8854644, 28.2634353 ], [ 85.8854503, 28.2632333 ], [ 85.8853938, 28.2630686 ], [ 85.8854397, 28.2627858 ], [ 85.8854291, 28.2626491 ], [ 85.8853938, 28.2624968 ], [ 85.8851857, 28.2620493 ], [ 85.885161, 28.2615024 ], [ 85.8851363, 28.2612632 ], [ 85.8850975, 28.2610301 ], [ 85.8851504, 28.2606914 ], [ 85.885168, 28.2604366 ], [ 85.885108, 28.2601351 ], [ 85.8851222, 28.2599207 ], [ 85.8852669, 28.2595722 ], [ 85.8855164, 28.2594228 ], [ 85.8858557, 28.2590493 ], [ 85.8860902, 28.2587592 ], [ 85.8862199, 28.2584296 ], [ 85.8866889, 28.258122 ], [ 85.8868635, 28.2579286 ], [ 85.8869234, 28.2576913 ], [ 85.8869234, 28.2574847 ], [ 85.8868685, 28.2572914 ], [ 85.8868685, 28.25712 ], [ 85.8868984, 28.256953 ], [ 85.8868485, 28.2567728 ], [ 85.8867637, 28.256597 ], [ 85.8867288, 28.2564124 ], [ 85.8868934, 28.2558938 ], [ 85.8870282, 28.2553972 ], [ 85.887083, 28.2550148 ], [ 85.887113, 28.2547599 ], [ 85.887098, 28.254505 ], [ 85.8872227, 28.2542721 ], [ 85.887564, 28.2539228 ], [ 85.8878634, 28.2531097 ], [ 85.8882875, 28.2524548 ], [ 85.8884222, 28.2521472 ], [ 85.8884272, 28.2518527 ], [ 85.8882975, 28.2513912 ], [ 85.8881977, 28.2506968 ], [ 85.8882925, 28.2501255 ], [ 85.888314871384466, 28.25 ] ] } },
{ "type": "Feature", "properties": { "water_type": "stream", "name": "" }, "geometry": { "type": "LineString", "coordinates": [ [ 85.9174656, 28.2540881 ], [ 85.9182697, 28.2527959 ], [ 85.9189814, 28.2521067 ], [ 85.919378, 28.2517813 ], [ 85.9196823, 28.2516569 ], [ 85.9203125, 28.2515276 ], [ 85.9211438, 28.2512884 ], [ 85.9224151, 28.2504891 ], [ 85.922861697777776, 28.25 ] ] } },
{ "type": "Feature", "properties": { "water_type": "water", "name": "" }, "geometry": { "type": "Polygon", "coordinates": [ [ [ 85.8759496, 28.297936 ], [ 85.8760463, 28.2978478 ], [ 85.8761154, 28.297714 ], [ 85.876112, 28.2976228 ], [ 85.8760291, 28.2975498 ], [ 85.8759289, 28.2975255 ], [ 85.875808, 28.2975255 ], [ 85.8756492, 28.2976258 ], [ 85.8755525, 28.2977262 ], [ 85.8755456, 28.2979025 ], [ 85.8756492, 28.2979664 ], [ 85.8757735, 28.2979816 ], [ 85.8759496, 28.297936 ] ] ] } },
{ "type": "Feature", "properties": { "water_type": "water", "name": "" }, "geometry": { "type": "Polygon", "coordinates": [ [ [ 85.8927938, 28.2745399 ], [ 85.8929647, 28.2745528 ], [ 85.8930673, 28.2745141 ], [ 85.8931528, 28.2744603 ], [ 85.893143, 28.2743721 ], [ 85.8930258, 28.2742818 ], [ 85.8928792, 28.274228 ], [ 85.8926888, 28.274213 ], [ 85.8926228, 28.2742667 ], [ 85.8925667, 28.2743485 ], [ 85.8925789, 28.2744237 ], [ 85.8926766, 28.2744689 ], [ 85.8927938, 28.2745399 ] ] ] } },
{ "type": "Feature", "properties": { "water_type": "water", "name": "" }, "geometry": { "type": "Polygon", "coordinates": [ [ [ 85.9142424, 28.2644751 ], [ 85.9143771, 28.2644508 ], [ 85.9144773, 28.2644599 ], [ 85.9145947, 28.2644599 ], [ 85.9147536, 28.2643748 ], [ 85.9149297, 28.2642044 ], [ 85.9151369, 28.2639337 ], [ 85.9153338, 28.2637055 ], [ 85.9155099, 28.2635169 ], [ 85.9156826, 28.2632371 ], [ 85.9158311, 28.2629755 ], [ 85.9160142, 28.2626713 ], [ 85.9161972, 28.2624218 ], [ 85.9163664, 28.2618713 ], [ 85.9164562, 28.2615275 ], [ 85.9166047, 28.2610712 ], [ 85.9166117, 28.2608644 ], [ 85.9165529, 28.2606301 ], [ 85.9163215, 28.2602407 ], [ 85.916173, 28.2599822 ], [ 85.915914, 28.2595928 ], [ 85.9157862, 28.2592338 ], [ 85.9157275, 28.2589357 ], [ 85.915762, 28.2585615 ], [ 85.9158, 28.258233 ], [ 85.9158967, 28.2576307 ], [ 85.9160901, 28.2572474 ], [ 85.9163043, 28.2569888 ], [ 85.9164977, 28.2568002 ], [ 85.9166117, 28.2567272 ], [ 85.916812, 28.2566785 ], [ 85.9169639, 28.2567059 ], [ 85.9171159, 28.2568154 ], [ 85.917216, 28.2569188 ], [ 85.9172817, 28.2570496 ], [ 85.917406, 28.2571774 ], [ 85.9175649, 28.2572656 ], [ 85.9177514, 28.2574633 ], [ 85.917855, 28.2576155 ], [ 85.9179033, 28.2577463 ], [ 85.917893, 28.2578649 ], [ 85.9177652, 28.2580626 ], [ 85.9176719, 28.2582087 ], [ 85.9176201, 28.258309 ], [ 85.9176236, 28.2584186 ], [ 85.917665, 28.2585342 ], [ 85.917741, 28.2586315 ], [ 85.9179068, 28.2587197 ], [ 85.9180795, 28.258738 ], [ 85.9181762, 28.258738 ], [ 85.9183247, 28.258592 ], [ 85.9185215, 28.2583395 ], [ 85.9186666, 28.2580413 ], [ 85.9187702, 28.2577432 ], [ 85.9187702, 28.2575303 ], [ 85.9186355, 28.2573052 ], [ 85.9184974, 28.2571956 ], [ 85.9183592, 28.2571257 ], [ 85.9181865, 28.2571074 ], [ 85.9180173, 28.2570922 ], [ 85.9178826, 28.2570435 ], [ 85.9176857, 28.2568063 ], [ 85.9175718, 28.2566329 ], [ 85.9175372, 28.2564199 ], [ 85.917661, 28.2559266 ], [ 85.917737, 28.2551569 ], [ 85.9177508, 28.2546975 ], [ 85.9176748, 28.2543446 ], [ 85.9175746, 28.2541591 ], [ 85.9174656, 28.2540881 ], [ 85.917364, 28.25408 ], [ 85.9171844, 28.2541621 ], [ 85.9169771, 28.2542838 ], [ 85.9166007, 28.2544389 ], [ 85.9162657, 28.2545789 ], [ 85.9157891, 28.2548192 ], [ 85.9156302, 28.2550048 ], [ 85.9154472, 28.2552755 ], [ 85.9154161, 28.2554915 ], [ 85.9154472, 28.2556345 ], [ 85.9156268, 28.2557897 ], [ 85.9157062, 28.25596 ], [ 85.9157373, 28.2561091 ], [ 85.9157131, 28.2562642 ], [ 85.9155715, 28.2566323 ], [ 85.9151122, 28.2571434 ], [ 85.9148531, 28.2576149 ], [ 85.9144905, 28.257907 ], [ 85.9141348, 28.258199 ], [ 85.9137514, 28.2583876 ], [ 85.9136823, 28.2584819 ], [ 85.9135787, 28.2587192 ], [ 85.9135304, 28.2591177 ], [ 85.9134544, 28.2594402 ], [ 85.913337, 28.2597018 ], [ 85.9132368, 28.2598904 ], [ 85.9130469, 28.2600425 ], [ 85.9128224, 28.2601733 ], [ 85.9126739, 28.2603832 ], [ 85.9125841, 28.2605475 ], [ 85.9125979, 28.2607756 ], [ 85.9126946, 28.2609855 ], [ 85.9128569, 28.2611133 ], [ 85.9132057, 28.2612897 ], [ 85.9134924, 28.261314 ], [ 85.9139345, 28.2612988 ], [ 85.9143247, 28.2612958 ], [ 85.914753, 28.2613414 ], [ 85.9151502, 28.2614935 ], [ 85.9152676, 28.2616243 ], [ 85.9152641, 28.2618646 ], [ 85.915202, 28.2620472 ], [ 85.9150189, 28.2622418 ], [ 85.9147046, 28.2624365 ], [ 85.9145216, 28.26254 ], [ 85.9142177, 28.2625673 ], [ 85.9137825, 28.2625947 ], [ 85.9135995, 28.2625856 ], [ 85.913375, 28.2625886 ], [ 85.9130952, 28.2627042 ], [ 85.9129398, 28.2628016 ], [ 85.9128224, 28.2629385 ], [ 85.9126393, 28.2632487 ], [ 85.9124908, 28.2635286 ], [ 85.9123976, 28.2637172 ], [ 85.9124114, 28.2640366 ], [ 85.9124874, 28.2642891 ], [ 85.9125737, 28.2644777 ], [ 85.9126635, 28.264578 ], [ 85.9128362, 28.2646784 ], [ 85.9130158, 28.2647271 ], [ 85.9131401, 28.2647332 ], [ 85.9133059, 28.2647088 ], [ 85.9134371, 28.2646328 ], [ 85.913672, 28.2645598 ], [ 85.9139586, 28.2645324 ], [ 85.9142424, 28.2644751 ] ] ] } },
{ "type": "Feature", "properties": { "water_type": "water", "name": "" }, "geometry": { "type": "Polygon", "coordinates": [ [ [ 85.8889457, 28.3127264 ], [ 85.889039, 28.3127264 ], [ 85.8891357, 28.3126716 ], [ 85.8891806, 28.3125652 ], [ 85.8890942, 28.3124375 ], [ 85.8889941, 28.3123128 ], [ 85.8889388, 28.312252 ], [ 85.8888559, 28.3122095 ], [ 85.888742, 28.3122277 ], [ 85.8886349, 28.3122764 ], [ 85.8886142, 28.3123767 ], [ 85.8886418, 28.3125318 ], [ 85.8887074, 28.3126169 ], [ 85.8888214, 28.3126747 ], [ 85.8889457, 28.3127264 ] ] ] } },
{ "type": "Feature", "properties": { "water_type": "water", "name": "" }, "geometry": { "type": "Polygon", "coordinates": [ [ [ 85.8960475, 28.2774826 ], [ 85.8959733, 28.277472 ], [ 85.8958628, 28.2774811 ], [ 85.8957868, 28.2775267 ], [ 85.8956314, 28.2776195 ], [ 85.8955727, 28.2776651 ], [ 85.8955019, 28.2777244 ], [ 85.8955001, 28.2777609 ], [ 85.8955278, 28.2777913 ], [ 85.8955744, 28.2778035 ], [ 85.8956435, 28.2778035 ], [ 85.8957453, 28.2778081 ], [ 85.8958662, 28.277802 ], [ 85.8959543, 28.2777609 ], [ 85.8960579, 28.2776514 ], [ 85.8960648, 28.2775237 ], [ 85.8960475, 28.2774826 ] ] ] } },
{ "type": "Feature", "properties": { "water_type": "water", "name": "" }, "geometry": { "type": "Polygon", "coordinates": [ [ [ 85.8940158, 28.3032655 ], [ 85.8941062, 28.3032655 ], [ 85.8942307, 28.3032268 ], [ 85.8943724, 28.3031086 ], [ 85.8944627, 28.3030161 ], [ 85.8944994, 28.3029021 ], [ 85.8945067, 28.3027968 ], [ 85.8944749, 28.3027 ], [ 85.8943846, 28.3026355 ], [ 85.8942649, 28.3026033 ], [ 85.8940793, 28.3026355 ], [ 85.8939523, 28.3026893 ], [ 85.8938668, 28.3027473 ], [ 85.8937814, 28.3028355 ], [ 85.893735, 28.3029323 ], [ 85.8937521, 28.3030699 ], [ 85.8938058, 28.303158 ], [ 85.8938888, 28.3032053 ], [ 85.8940158, 28.3032655 ] ] ] } },
{ "type": "Feature", "properties": { "water_type": "water", "name": "" }, "geometry": { "type": "Polygon", "coordinates": [ [ [ 85.8755728, 28.2541956 ], [ 85.8756827, 28.2540386 ], [ 85.8757462, 28.253931 ], [ 85.8757681, 28.2537804 ], [ 85.8757584, 28.2536729 ], [ 85.8756998, 28.2535481 ], [ 85.875607, 28.2535094 ], [ 85.8753725, 28.2534943 ], [ 85.8752187, 28.2535223 ], [ 85.8750599, 28.2537116 ], [ 85.8748914, 28.2537976 ], [ 85.8747425, 28.253916 ], [ 85.8746765, 28.2540386 ], [ 85.8746301, 28.2541375 ], [ 85.8746301, 28.2542472 ], [ 85.8746716, 28.2543354 ], [ 85.8747351, 28.2543957 ], [ 85.8748524, 28.2544301 ], [ 85.8749867, 28.2544279 ], [ 85.8751552, 28.2543849 ], [ 85.8755728, 28.2541956 ] ] ] } },
{ "type": "Feature", "properties": { "water_type": "water", "name": "" }, "geometry": { "type": "Polygon", "coordinates": [ [ [ 85.8711912, 28.2891741 ], [ 85.8712718, 28.2892085 ], [ 85.8713719, 28.2892106 ], [ 85.8714598, 28.2891784 ], [ 85.8716723, 28.288987 ], [ 85.871748, 28.2888687 ], [ 85.8717406, 28.2887784 ], [ 85.8717016, 28.2886773 ], [ 85.8717235, 28.2885935 ], [ 85.8717553, 28.2884558 ], [ 85.8716991, 28.2883075 ], [ 85.8716625, 28.2882408 ], [ 85.8715746, 28.2882021 ], [ 85.8714745, 28.2881956 ], [ 85.8713939, 28.2882236 ], [ 85.8712718, 28.2883354 ], [ 85.8711399, 28.2884881 ], [ 85.8710691, 28.2886128 ], [ 85.87103, 28.2887956 ], [ 85.8710739, 28.2890063 ], [ 85.8711643, 28.2891311 ], [ 85.8711912, 28.2891741 ] ] ] } },
{ "type": "Feature", "properties": { "water_type": "water", "name": "" }, "geometry": { "type": "Polygon", "coordinates": [ [ [ 85.8707384, 28.2781669 ], [ 85.8709388, 28.278246 ], [ 85.8710562, 28.2782795 ], [ 85.8712461, 28.2782582 ], [ 85.8714603, 28.2781882 ], [ 85.8715673, 28.2779601 ], [ 85.8716088, 28.2777867 ], [ 85.8716295, 28.2775738 ], [ 85.8715811, 28.2772727 ], [ 85.8714879, 28.2771237 ], [ 85.8713428, 28.2770385 ], [ 85.8711184, 28.2770112 ], [ 85.8708731, 28.2770477 ], [ 85.8706038, 28.2771024 ], [ 85.8703482, 28.2772119 ], [ 85.8699683, 28.2773427 ], [ 85.8698716, 28.2774218 ], [ 85.8697887, 28.2775495 ], [ 85.869806, 28.277656 ], [ 85.869875, 28.2777502 ], [ 85.8700028, 28.2778263 ], [ 85.8701271, 28.2778719 ], [ 85.8702446, 28.2779419 ], [ 85.8703862, 28.278027 ], [ 85.8707384, 28.2781669 ] ] ] } },
{ "type": "Feature", "properties": { "water_type": "water", "name": "" }, "geometry": { "type": "Polygon", "coordinates": [ [ [ 85.8944352, 28.288617 ], [ 85.894611, 28.288703 ], [ 85.8948088, 28.2887095 ], [ 85.8949578, 28.2887374 ], [ 85.8952435, 28.2888234 ], [ 85.8954535, 28.2888428 ], [ 85.8956391, 28.2887675 ], [ 85.8956977, 28.2886578 ], [ 85.8957051, 28.2884708 ], [ 85.8955903, 28.2882944 ], [ 85.8954511, 28.2881976 ], [ 85.8952337, 28.2881589 ], [ 85.8949456, 28.2879912 ], [ 85.8946965, 28.2878557 ], [ 85.8943863, 28.2877762 ], [ 85.8939516, 28.2878041 ], [ 85.8938222, 28.2878536 ], [ 85.8937489, 28.2879417 ], [ 85.8937611, 28.2881073 ], [ 85.8938124, 28.2882105 ], [ 85.8939077, 28.2883224 ], [ 85.8939956, 28.2883804 ], [ 85.8941299, 28.2884406 ], [ 85.894296, 28.2885073 ], [ 85.8944352, 28.288617 ] ] ] } },
{ "type": "Feature", "properties": { "water_type": "water", "name": "" }, "geometry": { "type": "Polygon", "coordinates": [ [ [ 85.8721632, 28.268105 ], [ 85.8725293, 28.2680624 ], [ 85.8727711, 28.2679772 ], [ 85.8729817, 28.267886 ], [ 85.8731682, 28.2676578 ], [ 85.8732787, 28.2674753 ], [ 85.8733064, 28.2673019 ], [ 85.87322, 28.2671864 ], [ 85.8730991, 28.2670921 ], [ 85.8728643, 28.2670586 ], [ 85.8726813, 28.2670191 ], [ 85.8725051, 28.2670191 ], [ 85.8723324, 28.2670373 ], [ 85.8721218, 28.2670677 ], [ 85.8718524, 28.2671955 ], [ 85.8716728, 28.267308 ], [ 85.8715312, 28.2673324 ], [ 85.8712791, 28.2673537 ], [ 85.8711513, 28.2674327 ], [ 85.8711236, 28.2675422 ], [ 85.8711409, 28.2676517 ], [ 85.8712514, 28.2677643 ], [ 85.871393, 28.2678799 ], [ 85.8714794, 28.2679742 ], [ 85.8715864, 28.2680563 ], [ 85.8718317, 28.2680837 ], [ 85.8721632, 28.268105 ] ] ] } },
{ "type": "Feature", "properties": { "water_type": "water", "name": "" }, "geometry": { "type": "Polygon", "coordinates": [ [ [ 85.8683977, 28.2952196 ], [ 85.8685013, 28.2952196 ], [ 85.8686533, 28.2951436 ], [ 85.8688777, 28.2949307 ], [ 85.8689779, 28.2947513 ], [ 85.8690401, 28.2945019 ], [ 85.8695029, 28.2938998 ], [ 85.869603, 28.2936383 ], [ 85.8695927, 28.2934984 ], [ 85.8695167, 28.2934437 ], [ 85.8693854, 28.2934528 ], [ 85.8692784, 28.2935379 ], [ 85.8691851, 28.29369 ], [ 85.8689606, 28.2936809 ], [ 85.8688501, 28.2936322 ], [ 85.8686602, 28.2935227 ], [ 85.8685566, 28.293468 ], [ 85.8684426, 28.2934467 ], [ 85.8683252, 28.2934528 ], [ 85.868187, 28.2934954 ], [ 85.8681041, 28.2935531 ], [ 85.8680454, 28.2936869 ], [ 85.8680627, 28.2937964 ], [ 85.8681456, 28.293988 ], [ 85.8682526, 28.2943864 ], [ 85.8682423, 28.2946753 ], [ 85.8682975, 28.2949611 ], [ 85.8683217, 28.2951923 ], [ 85.8683977, 28.2952196 ] ] ] } },
{ "type": "Feature", "properties": { "water_type": "water", "name": "" }, "geometry": { "type": "Polygon", "coordinates": [ [ [ 85.878112, 28.2614014 ], [ 85.8785299, 28.2615291 ], [ 85.8788201, 28.2616082 ], [ 85.8791481, 28.2616569 ], [ 85.8794279, 28.2616356 ], [ 85.8796766, 28.2615078 ], [ 85.8797456, 28.2613679 ], [ 85.8797525, 28.2612675 ], [ 85.8795971, 28.2611306 ], [ 85.8794003, 28.2609785 ], [ 85.8792967, 28.2608721 ], [ 85.8792725, 28.2607626 ], [ 85.8792967, 28.2606165 ], [ 85.8792414, 28.2605162 ], [ 85.8790653, 28.2604371 ], [ 85.8788857, 28.2604097 ], [ 85.878713, 28.2604127 ], [ 85.8784954, 28.2604127 ], [ 85.8780741, 28.2603519 ], [ 85.8778323, 28.2603154 ], [ 85.8775629, 28.2602941 ], [ 85.8773799, 28.2603002 ], [ 85.8772624, 28.2603549 ], [ 85.877183, 28.2604553 ], [ 85.8771139, 28.2605952 ], [ 85.8771139, 28.2607504 ], [ 85.8771968, 28.2608964 ], [ 85.8773488, 28.2610607 ], [ 85.8775007, 28.2611763 ], [ 85.8776769, 28.2612979 ], [ 85.878112, 28.2614014 ] ] ] } },
{ "type": "Feature", "properties": { "water_type": "water", "name": "" }, "geometry": { "type": "Polygon", "coordinates": [ [ [ 85.875448, 28.3025725 ], [ 85.875531, 28.3026306 ], [ 85.8756604, 28.302665 ], [ 85.875846, 28.3026714 ], [ 85.8759999, 28.3026198 ], [ 85.8762099, 28.302437 ], [ 85.8763735, 28.3023016 ], [ 85.8764419, 28.3020715 ], [ 85.8764248, 28.3018715 ], [ 85.87631, 28.3016264 ], [ 85.876227, 28.3015512 ], [ 85.8761464, 28.301491 ], [ 85.8760756, 28.3014114 ], [ 85.8760854, 28.3013297 ], [ 85.876122, 28.3011985 ], [ 85.8761635, 28.3011125 ], [ 85.8761806, 28.3010287 ], [ 85.8761318, 28.3009448 ], [ 85.8760438, 28.3008996 ], [ 85.8759266, 28.3008846 ], [ 85.8758167, 28.3008932 ], [ 85.8756678, 28.3009513 ], [ 85.875553, 28.3010738 ], [ 85.8754675, 28.3011813 ], [ 85.8754333, 28.3013598 ], [ 85.8752184, 28.3017275 ], [ 85.8751598, 28.3018758 ], [ 85.8751427, 28.3020694 ], [ 85.8751744, 28.3022435 ], [ 85.8752111, 28.3023338 ], [ 85.8753405, 28.3024478 ], [ 85.875448, 28.3025725 ] ] ] } },
{ "type": "Feature", "properties": { "water_type": "water", "name": "" }, "geometry": { "type": "Polygon", "coordinates": [ [ [ 85.896305, 28.268581 ], [ 85.8967194, 28.2686874 ], [ 85.8969888, 28.2688517 ], [ 85.8972616, 28.2690646 ], [ 85.8974412, 28.2691589 ], [ 85.8977486, 28.2692532 ], [ 85.8979697, 28.2692866 ], [ 85.8983634, 28.269314 ], [ 85.898726, 28.269314 ], [ 85.8990403, 28.2693171 ], [ 85.8994444, 28.2693262 ], [ 85.8996447, 28.2692623 ], [ 85.8997621, 28.2691133 ], [ 85.8998139, 28.2689581 ], [ 85.8997517, 28.2688152 ], [ 85.8993995, 28.268511 ], [ 85.8991163, 28.2683042 ], [ 85.8985568, 28.2679817 ], [ 85.897835, 28.2677293 ], [ 85.8972927, 28.2673642 ], [ 85.8969784, 28.2671878 ], [ 85.8967401, 28.2670448 ], [ 85.8965087, 28.266984 ], [ 85.896381, 28.2670357 ], [ 85.8961876, 28.2671878 ], [ 85.8959734, 28.2673429 ], [ 85.8958249, 28.2675346 ], [ 85.8957144, 28.2677718 ], [ 85.8957006, 28.2680517 ], [ 85.8957869, 28.2682403 ], [ 85.8958974, 28.2683832 ], [ 85.8960425, 28.2684836 ], [ 85.896305, 28.268581 ] ] ] } },
{ "type": "Feature", "properties": { "water_type": "water", "name": "" }, "geometry": { "type": "Polygon", "coordinates": [ [ [ 85.9016097, 28.3036428 ], [ 85.9017807, 28.3035589 ], [ 85.9019223, 28.3035245 ], [ 85.9021397, 28.3034127 ], [ 85.9023472, 28.3032686 ], [ 85.9026843, 28.3031375 ], [ 85.9029602, 28.3031267 ], [ 85.9031312, 28.3031504 ], [ 85.903285, 28.303159 ], [ 85.9033705, 28.3031353 ], [ 85.9035072, 28.3030364 ], [ 85.9035952, 28.302944 ], [ 85.9036049, 28.3028343 ], [ 85.9035536, 28.3027375 ], [ 85.9034828, 28.3026816 ], [ 85.9033412, 28.3026494 ], [ 85.9030652, 28.3026537 ], [ 85.9029309, 28.3026666 ], [ 85.9028259, 28.3026881 ], [ 85.9026672, 28.3027418 ], [ 85.9025499, 28.3027612 ], [ 85.9024742, 28.3028365 ], [ 85.9023301, 28.3029225 ], [ 85.9021299, 28.3029569 ], [ 85.9019345, 28.303073 ], [ 85.9017929, 28.3031762 ], [ 85.9015316, 28.3032127 ], [ 85.9013435, 28.3031977 ], [ 85.9010896, 28.3031826 ], [ 85.9009381, 28.303202 ], [ 85.9008282, 28.3032751 ], [ 85.9007623, 28.3033826 ], [ 85.9007745, 28.3035159 ], [ 85.9008429, 28.3035955 ], [ 85.9009113, 28.3036277 ], [ 85.9010383, 28.3036621 ], [ 85.9011946, 28.3036729 ], [ 85.901346, 28.3036707 ], [ 85.9016097, 28.3036428 ] ] ] } },
{ "type": "Feature", "properties": { "water_type": "water", "name": "" }, "geometry": { "type": "Polygon", "coordinates": [ [ [ 85.871192, 28.310428 ], [ 85.8712384, 28.310443 ], [ 85.8713116, 28.3104323 ], [ 85.8714606, 28.3103678 ], [ 85.8716902, 28.3102968 ], [ 85.8722006, 28.3101485 ], [ 85.8724765, 28.310127 ], [ 85.872733, 28.3100861 ], [ 85.8729967, 28.3100216 ], [ 85.8732018, 28.309942 ], [ 85.873385, 28.3098496 ], [ 85.87349, 28.3097743 ], [ 85.8735657, 28.3095916 ], [ 85.8734754, 28.3094561 ], [ 85.8732434, 28.3093271 ], [ 85.8729283, 28.3091938 ], [ 85.8727842, 28.3091508 ], [ 85.8724839, 28.3091487 ], [ 85.8721078, 28.3091121 ], [ 85.8718562, 28.309039 ], [ 85.8716584, 28.3089229 ], [ 85.8713214, 28.3087961 ], [ 85.8711065, 28.3087531 ], [ 85.8709649, 28.3087552 ], [ 85.8707573, 28.3088907 ], [ 85.8706913, 28.3089831 ], [ 85.8705985, 28.309082 ], [ 85.8705253, 28.3091078 ], [ 85.8703665, 28.3091358 ], [ 85.8702957, 28.3091702 ], [ 85.8702762, 28.3092132 ], [ 85.8702835, 28.309297 ], [ 85.87043, 28.3094755 ], [ 85.8705912, 28.3096625 ], [ 85.8707036, 28.3098087 ], [ 85.8707548, 28.3098883 ], [ 85.8707988, 28.3100109 ], [ 85.870938, 28.3101872 ], [ 85.8711236, 28.3103484 ], [ 85.871192, 28.310428 ] ] ] } },
{ "type": "Feature", "properties": { "water_type": "stream", "name": "" }, "geometry": { "type": "LineString", "coordinates": [ [ 85.8797456, 28.2613679 ], [ 85.8802136, 28.2614679 ], [ 85.881416, 28.2619243 ], [ 85.8821517, 28.262122 ], [ 85.8826006, 28.2621281 ], [ 85.8831601, 28.2620125 ], [ 85.8839027, 28.2618421 ], [ 85.8843827, 28.2616779 ], [ 85.8846176, 28.2614771 ], [ 85.8847937, 28.2614011 ], [ 85.8851363, 28.2612632 ] ] } },
{ "type": "Feature", "properties": { "water_type": "water", "name": "" }, "geometry": { "type": "Polygon", "coordinates": [ [ [ 85.9361021, 28.2605269 ], [ 85.9363298, 28.2606128 ], [ 85.9362485, 28.2603836 ], [ 85.9360696, 28.2599826 ], [ 85.9361509, 28.2597534 ], [ 85.9360696, 28.2591088 ], [ 85.9358419, 28.2591088 ], [ 85.9357281, 28.2598393 ], [ 85.935907, 28.2606701 ], [ 85.9361021, 28.2605269 ] ] ] } }
]
}
