{
"type": "FeatureCollection",
"name": "wb_80.2400_12.9800_80.3100_13.0500",
"crs": { "type": "name", "properties": { "name": "urn:ogc:def:crs:OGC:1.3:CRS84" } },
"features": [
{ "type": "Feature", "properties": { "water_type": "coastline", "name": "" }, "geometry": { "type": "LineString", "coordinates": [ [ 80.2775416, 13.0131003 ], [ 80.277546, 13.013162 ], [ 80.2775422, 13.0132921 ], [ 80.2775512, 13.0134069 ], [ 80.2775779, 13.0135279 ], [ 80.2776197, 13.0136435 ], [ 80.2776409, 13.0137115 ], [ 80.2776915, 13.0138148 ], [ 80.2777514, 13.0139164 ], [ 80.2777941, 13.0139773 ], [ 80.2778177, 13.0140341 ], [ 80.2778325, 13.0141391 ], [ 80.2778545, 13.0142078 ], [ 80.2778912, 13.014293 ], [ 80.2779019, 13.0143588 ], [ 80.2779419, 13.0147413 ], [ 80.2779934, 13.0153081 ], [ 80.2780094, 13.0158592 ], [ 80.2780801, 13.0164698 ], [ 80.2781733, 13.0176629 ], [ 80.2784304, 13.0196387 ], [ 80.2784754, 13.0201178 ], [ 80.2785269, 13.020838 ], [ 80.2786072, 13.0212513 ], [ 80.2786811, 13.0218087 ], [ 80.2788065, 13.02277 ], [ 80.2789383, 13.0236906 ], [ 80.2790347, 13.0244734 ], [ 80.2791664, 13.0253408 ], [ 80.2792886, 13.0258981 ], [ 80.2794043, 13.0264273 ], [ 80.2795152, 13.027268 ], [ 80.2796839, 13.0283749 ], [ 80.2798639, 13.0294959 ], [ 80.2800535, 13.0306857 ], [ 80.2803652, 13.0330356 ], [ 80.2804874, 13.0335773 ], [ 80.2807003, 13.0348877 ], [ 80.2808505, 13.0358427 ], [ 80.2809984, 13.0368259 ], [ 80.2811269, 13.0376243 ], [ 80.2814298, 13.0391345 ] ] } },
{ "type": "Feature", "properties": { "water_type": "canal", "name": "Mambalam Canal" }, "geometry": { "type": "LineString", "coordinates": [ [ 80.2457923, 13.0393161 ], [ 80.2457251, 13.0392112 ], [ 80.2455644, 13.0389278 ], [ 80.2454707, 13.0388001 ], [ 80.2452475, 13.038361 ], [ 80.244866, 13.0374469 ], [ 80.2447365, 13.0370778 ], [ 80.2446183, 13.0364536 ], [ 80.2443592, 13.0356762 ], [ 80.2439993, 13.0351076 ], [ 80.2437611, 13.0349948 ], [ 80.2431687, 13.0347143 ], [ 80.2429136, 13.0345139 ], [ 80.2427478, 13.0342145 ], [ 80.2425721, 13.0336457 ], [ 80.2425375, 13.0335363 ], [ 80.2424923, 13.0334735 ], [ 80.2412929, 13.0325883 ], [ 80.2411224, 13.0325188 ], [ 80.2410986, 13.0325091 ], [ 80.2402135, 13.0323064 ], [ 80.24, 13.032268811636969 ] ] } },
{ "type": "Feature", "properties": { "water_type": "water", "name": "Kapaleeshwara Koil Kulam" }, "geometry": { "type": "Polygon", "coordinates": [ [ [ 80.2694607, 13.0341785 ], [ 80.2691716, 13.0325385 ], [ 80.2679007, 13.0326887 ], [ 80.2682586, 13.0343349 ], [ 80.2694607, 13.0341785 ] ] ] } },
{ "type": "Feature", "properties": { "water_type": "water", "name": "Athikesvara Perumal Koil Kulam" }, "geometry": { "type": "Polygon", "coordinates": [ [ [ 80.2715366, 13.031569 ], [ 80.2713002, 13.0310047 ], [ 80.2704998, 13.0313214 ], [ 80.2707025, 13.0318443 ], [ 80.2715366, 13.031569 ] ] ] } },
{ "type": "Feature", "properties": { "water_type": "coastline", "name": "" }, "geometry": { "type": "LineString", "coordinates": [ [ 80.2814298, 13.0391345 ], [ 80.2827239, 13.0452993 ], [ 80.2834957, 13.0487437 ], [ 80.2838245, 13.0498186 ], [ 80.283868995026069, 13.05 ] ] } },
{ "type": "Feature", "properties": { "water_type": "water", "name": "Marundeeshwara Temple Tank" }, "geometry": { "type": "Polygon", "coordinates": [ [ [ 80.2618444, 12.9851448 ], [ 80.2609834, 12.9852008 ], [ 80.2610399, 12.985993 ], [ 80.2618713, 12.9859656 ], [ 80.2618444, 12.9851448 ] ] ] } },
{ "type": "Feature", "properties": { "water_type": "water", "name": "Oxidation Pond" }, "geometry": { "type": "Polygon", "coordinates": [ [ [ 80.2410856, 12.9912906 ], [ 80.2409039, 12.990178 ], [ 80.24, 12.990318073673267 ], [ 80.24, 12.991458816984116 ], [ 80.2410856, 12.9912906 ] ] ] } },
{ "type": "Feature", "properties": { "water_type": "water", "name": "Oxidation Pond" }, "geometry": { "type": "MultiPolygon", "coordinates": [ [ [ [ 80.2400108, 12.989583 ], [ 80.24, 12.989454437922058 ], [ 80.24, 12.989584064186783 ], [ 80.2400108, 12.989583 ] ] ], [ [ [ 80.2401302, 12.9889752 ], [ 80.2407115, 12.9889253 ], [ 80.2406647, 12.9884081 ], [ 80.24, 12.988465148374512 ], [ 80.24, 12.989098473590888 ], [ 80.2401302, 12.9889752 ] ] ] ] } },
{ "type": "Feature", "properties": { "water_type": "water", "name": "Balasubramani Temple Tank" }, "geometry": { "type": "Polygon", "coordinates": [ [ [ 80.2492116, 13.0382377 ], [ 80.2492426, 13.0384192 ], [ 80.2494552, 13.0383847 ], [ 80.2494241, 13.0382032 ], [ 80.2492116, 13.0382377 ] ] ] } },
{ "type": "Feature", "properties": { "water_type": "drain", "name": "" }, "geometry": { "type": "LineString", "coordinates": [ [ 80.2414098, 13.0303135 ], [ 80.2413864, 13.0302377 ], [ 80.2410215, 13.0288542 ] ] } },
{ "type": "Feature", "properties": { "water_type": "stream", "name": "Adyar Creek" }, "geometry": { "type": "LineString", "coordinates": [ [ 80.2631657, 13.0211257 ], [ 80.2634273, 13.0210512 ], [ 80.2638283, 13.0210429 ], [ 80.2641073, 13.0210534 ], [ 80.2643957, 13.0210149 ], [ 80.2646115, 13.0210011 ], [ 80.2648368, 13.0211475 ], [ 80.2650407, 13.0213565 ], [ 80.2652231, 13.0216492 ], [ 80.2652767, 13.0219523 ], [ 80.2653304, 13.02213 ], [ 80.265502, 13.0224227 ], [ 80.2658024, 13.0227468 ], [ 80.2659788, 13.0228604 ], [ 80.2661458, 13.0229035 ], [ 80.2664783, 13.0228721 ], [ 80.2666607, 13.0229975 ], [ 80.267004, 13.0233629 ], [ 80.2675082, 13.0236764 ], [ 80.2676692, 13.0239378 ], [ 80.2681198, 13.0242723 ], [ 80.2689025, 13.0243872 ], [ 80.269632, 13.0243872 ], [ 80.2706298, 13.0241782 ], [ 80.2715418, 13.0238562 ], [ 80.2722928, 13.0235928 ], [ 80.2728543, 13.0229733 ], [ 80.2742454, 13.0227467 ], [ 80.2750715, 13.0221195 ], [ 80.2754685, 13.0215028 ], [ 80.2756831, 13.0207606 ], [ 80.2758215, 13.0204334 ], [ 80.2758556, 13.0201473 ], [ 80.2758333, 13.0199139 ], [ 80.2757153, 13.0191717 ], [ 80.2752402, 13.0173406 ], [ 80.2754074, 13.0167018 ], [ 80.2758566, 13.0154287 ], [ 80.2756647, 13.0148853 ], [ 80.2752217, 13.0143215 ], [ 80.275027, 13.0130658 ] ] } },
{ "type": "Feature", "properties": { "water_type": "water", "name": "" }, "geometry": { "type": "Polygon", "coordinates": [ [ [ 80.2712037, 13.0243995 ], [ 80.2714124, 13.0243308 ], [ 80.2717652, 13.0243594 ], [ 80.2718034, 13.0243107 ], [ 80.2716946, 13.0241818 ], [ 80.2716711, 13.0240902 ], [ 80.2718475, 13.0240329 ], [ 80.2720004, 13.0239126 ], [ 80.2722973, 13.0238553 ], [ 80.2724002, 13.0238754 ], [ 80.2722826, 13.0240214 ], [ 80.271921, 13.0242219 ], [ 80.2718975, 13.0242649 ], [ 80.2719681, 13.0242907 ], [ 80.2722091, 13.0241933 ], [ 80.2728148, 13.0239011 ], [ 80.2730029, 13.0237522 ], [ 80.2730118, 13.0236204 ], [ 80.2727089, 13.023397 ], [ 80.2726648, 13.0232996 ], [ 80.2728297, 13.0230915 ], [ 80.272758, 13.0230373 ], [ 80.2725472, 13.0232223 ], [ 80.2724561, 13.0231879 ], [ 80.2721856, 13.023102 ], [ 80.271921, 13.0231679 ], [ 80.2714565, 13.0233884 ], [ 80.2711155, 13.0235975 ], [ 80.2708544, 13.0237844 ], [ 80.2704582, 13.0238652 ], [ 80.27019, 13.0239697 ], [ 80.2699218, 13.0240952 ], [ 80.2697716, 13.024022 ], [ 80.2694283, 13.024022 ], [ 80.2686027, 13.0240847 ], [ 80.2683666, 13.0241683 ], [ 80.2682164, 13.0241474 ], [ 80.2679375, 13.0239593 ], [ 80.2676585, 13.0236771 ], [ 80.2674332, 13.0234157 ], [ 80.26733, 13.0233042 ], [ 80.2671554, 13.0232353 ], [ 80.2669309, 13.0230773 ], [ 80.2666253, 13.0226256 ], [ 80.2665297, 13.0225588 ], [ 80.2664028, 13.0225811 ], [ 80.2661118, 13.0227715 ], [ 80.266037, 13.0227998 ], [ 80.2660162, 13.0228424 ], [ 80.2661846, 13.0229679 ], [ 80.2663467, 13.0230024 ], [ 80.2664444, 13.0230246 ], [ 80.2664694, 13.0231259 ], [ 80.2665754, 13.0233123 ], [ 80.2668082, 13.0235918 ], [ 80.2669558, 13.0237518 ], [ 80.2673474, 13.0239488 ], [ 80.2674225, 13.0241474 ], [ 80.2675512, 13.0243042 ], [ 80.2678409, 13.0246701 ], [ 80.2680126, 13.0245656 ], [ 80.2681306, 13.0245551 ], [ 80.2682164, 13.024461 ], [ 80.268313, 13.0244192 ], [ 80.2683666, 13.0245028 ], [ 80.2684525, 13.0246074 ], [ 80.2686134, 13.0245446 ], [ 80.2687851, 13.0246387 ], [ 80.2690849, 13.0246805 ], [ 80.2695463, 13.0247223 ], [ 80.2699111, 13.0246387 ], [ 80.2700183, 13.0247432 ], [ 80.2701042, 13.0246387 ], [ 80.2702651, 13.024691 ], [ 80.2704582, 13.0246805 ], [ 80.2706835, 13.024576 ], [ 80.2708981, 13.0245028 ], [ 80.271059, 13.0245028 ], [ 80.2712037, 13.0243995 ] ] ] } },
{ "type": "Feature", "properties": { "water_type": "water", "name": "" }, "geometry": { "type": "Polygon", "coordinates": [ [ [ 80.2659955, 13.0170916 ], [ 80.2659847, 13.0167884 ], [ 80.265856, 13.0166839 ], [ 80.2657594, 13.0168093 ], [ 80.2658024, 13.0169766 ], [ 80.2659204, 13.0171438 ], [ 80.2659955, 13.0170916 ] ] ] } },
{ "type": "Feature", "properties": { "water_type": "water", "name": "" }, "geometry": { "type": "Polygon", "coordinates": [ [ [ 80.2531972, 13.0189626 ], [ 80.2532724, 13.0189926 ], [ 80.253351, 13.0189959 ], [ 80.253435, 13.0189753 ], [ 80.2535164, 13.0189097 ], [ 80.2535699, 13.0188867 ], [ 80.2536278, 13.0189129 ], [ 80.253668, 13.018973 ], [ 80.2537967, 13.0189521 ], [ 80.2539308, 13.0189521 ], [ 80.2539442, 13.0189208 ], [ 80.2538665, 13.0182831 ], [ 80.2538182, 13.0182151 ], [ 80.253727, 13.0182099 ], [ 80.2534299, 13.018213 ], [ 80.2531691, 13.018304 ], [ 80.2530993, 13.0183562 ], [ 80.2530842, 13.0184412 ], [ 80.2531268, 13.0184769 ], [ 80.2531621, 13.0184562 ], [ 80.2531852, 13.0183719 ], [ 80.253343, 13.0182949 ], [ 80.2534977, 13.0182434 ], [ 80.2536568, 13.0182567 ], [ 80.2537559, 13.0183066 ], [ 80.2538268, 13.0184223 ], [ 80.2538451, 13.0185748 ], [ 80.2537858, 13.0186136 ], [ 80.2538034, 13.0188214 ], [ 80.2537055, 13.0188371 ], [ 80.2535136, 13.0188841 ], [ 80.2533782, 13.0189651 ], [ 80.2532442, 13.0189625 ], [ 80.2532013, 13.0189103 ], [ 80.2532013, 13.0187953 ], [ 80.253153, 13.0187535 ], [ 80.2531047, 13.0187535 ], [ 80.2531127, 13.0188201 ], [ 80.253145, 13.0188854 ], [ 80.2531972, 13.0189626 ] ] ] } },
{ "type": "Feature", "properties": { "water_type": "water", "name": "Virupatcheshwarer Temple Tank" }, "geometry": { "type": "Polygon", "coordinates": [ [ [ 80.2747114, 13.0390096 ], [ 80.2746586, 13.0386503 ], [ 80.274379, 13.038684 ], [ 80.2744288, 13.0390395 ], [ 80.2747114, 13.0390096 ] ] ] } },
{ "type": "Feature", "properties": { "water_type": "water", "name": "" }, "geometry": { "type": "Polygon", "coordinates": [ [ [ 80.2535371, 12.9819782 ], [ 80.2533725, 12.9819405 ], [ 80.253294, 12.9820245 ], [ 80.253207, 12.9822312 ], [ 80.2530916, 12.9827323 ], [ 80.2529223, 12.9833936 ], [ 80.2527953, 12.9838999 ], [ 80.2526434, 12.9845062 ], [ 80.2525289, 12.9849412 ], [ 80.252349, 12.9856504 ], [ 80.2521967, 12.9861847 ], [ 80.252064, 12.9866763 ], [ 80.2518564, 12.9878153 ], [ 80.251807, 12.9880336 ], [ 80.2518626, 12.9880881 ], [ 80.2519078, 12.9882301 ], [ 80.2519229, 12.9884356 ], [ 80.2512549, 12.9907846 ], [ 80.2511432, 12.9908531 ], [ 80.2505311, 12.9931547 ], [ 80.2507587, 12.9932235 ], [ 80.2514335, 12.9907002 ], [ 80.2520535, 12.9884826 ], [ 80.25203, 12.9881615 ], [ 80.252077, 12.9877638 ], [ 80.2523646, 12.9867398 ], [ 80.2529167, 12.984774 ], [ 80.2530479, 12.9842966 ], [ 80.2535371, 12.9819782 ] ] ] } },
{ "type": "Feature", "properties": { "water_type": "water", "name": "" }, "geometry": { "type": "Polygon", "coordinates": [ [ [ 80.253565, 12.9802119 ], [ 80.2534153, 12.9815462 ], [ 80.2533725, 12.9819405 ], [ 80.2535371, 12.9819782 ], [ 80.2536532, 12.981634 ], [ 80.2537936, 12.9808606 ], [ 80.2538758, 12.9806012 ], [ 80.2539339, 12.9801438 ], [ 80.253920176054265, 12.98 ], [ 80.253580677154474, 12.98 ], [ 80.253565, 12.9802119 ] ] ] } },
{ "type": "Feature", "properties": { "water_type": "river", "name": "Adyar River" }, "geometry": { "type": "LineString", "coordinates": [ [ 80.24, 13.025801843630237 ], [ 80.2403778, 13.0260984 ], [ 80.2418048, 13.0264851 ], [ 80.2433287, 13.0262414 ], [ 80.2445304, 13.0254052 ], [ 80.2449117, 13.025047 ], [ 80.2469336, 13.0231474 ], [ 80.2482137, 13.0214538 ], [ 80.2486, 13.0207012 ], [ 80.249115, 13.0196141 ], [ 80.2494138, 13.018594 ], [ 80.2505243, 13.0164956 ], [ 80.2510071, 13.015722 ], [ 80.2529061, 13.014938 ], [ 80.2560389, 13.0142899 ], [ 80.2585071, 13.0139994 ], [ 80.2606393, 13.0139688 ], [ 80.2643758, 13.0152057 ], [ 80.2667341, 13.0156529 ], [ 80.2669903, 13.0156736 ], [ 80.2671698, 13.015668 ], [ 80.2675647, 13.0156299 ], [ 80.2680125, 13.0155323 ], [ 80.2683212, 13.0154153 ], [ 80.269145, 13.0149175 ], [ 80.2695108, 13.0147157 ], [ 80.2703208, 13.0143412 ], [ 80.2708078, 13.0141536 ], [ 80.2713181, 13.013956 ], [ 80.2718457, 13.0137646 ], [ 80.2724541, 13.0135954 ], [ 80.2730533, 13.013453 ], [ 80.2735119, 13.0133562 ], [ 80.275027, 13.0130658 ], [ 80.2760632, 13.0128788 ], [ 80.2774629, 13.0126145 ] ] } },
{ "type": "Feature", "properties": { "water_type": "water", "name": "" }, "geometry": { "type": "Polygon", "coordinates": [ [ [ 80.2422652, 12.9914092 ], [ 80.2424076, 12.9914134 ], [ 80.2425486, 12.991398 ], [ 80.2425702, 12.9914316 ], [ 80.2425875, 12.9914597 ], [ 80.2427141, 12.9914485 ], [ 80.2427759, 12.9914302 ], [ 80.2427774, 12.9913083 ], [ 80.2427644, 12.9911597 ], [ 80.2426652, 12.9911611 ], [ 80.2424335, 12.9911751 ], [ 80.2423515, 12.9911849 ], [ 80.2423285, 12.9912424 ], [ 80.2423112, 12.9912816 ], [ 80.2422753, 12.9913013 ], [ 80.2422105, 12.9913181 ], [ 80.242199, 12.9913616 ], [ 80.2421717, 12.9913826 ], [ 80.242176, 12.9914092 ], [ 80.2422652, 12.9914092 ] ] ] } },
{ "type": "Feature", "properties": { "water_type": "water", "name": "" }, "geometry": { "type": "Polygon", "coordinates": [ [ [ 80.2686122, 13.0361466 ], [ 80.2684726, 13.0360786 ], [ 80.2679201, 13.035859 ], [ 80.2677853, 13.0358083 ], [ 80.2677154, 13.0357739 ], [ 80.2676824, 13.0357602 ], [ 80.2675366, 13.0356146 ], [ 80.2666386, 13.0346237 ], [ 80.2664376, 13.0344247 ], [ 80.2662564, 13.0342906 ], [ 80.2661723, 13.0342443 ], [ 80.2660958, 13.0342021 ], [ 80.2660151, 13.0341 ], [ 80.2649149, 13.0336114 ], [ 80.264448, 13.0333459 ], [ 80.2641438, 13.0330907 ], [ 80.2636051, 13.0325 ], [ 80.2633875, 13.0323127 ], [ 80.2624432, 13.0315677 ], [ 80.2621072, 13.0312198 ], [ 80.2618622, 13.0308741 ], [ 80.2616066, 13.0304439 ], [ 80.2611122, 13.0293078 ], [ 80.2609812, 13.0293551 ], [ 80.2613657, 13.0304007 ], [ 80.2616509, 13.0308596 ], [ 80.2619678, 13.0312384 ], [ 80.263848, 13.0330701 ], [ 80.2643466, 13.0334447 ], [ 80.2648071, 13.0337349 ], [ 80.2655677, 13.0340828 ], [ 80.2660198, 13.0342556 ], [ 80.2660831, 13.0343071 ], [ 80.2661592, 13.0343688 ], [ 80.2665986, 13.0346961 ], [ 80.2671923, 13.0354514 ], [ 80.2675134, 13.0358137 ], [ 80.2676444, 13.0359001 ], [ 80.2676872, 13.0359147 ], [ 80.2677598, 13.0359418 ], [ 80.267928, 13.035997 ], [ 80.2682292, 13.0361292 ], [ 80.2683669, 13.0362244 ], [ 80.2685524, 13.0364032 ], [ 80.2687399, 13.036306 ], [ 80.2686122, 13.0361466 ] ] ] } },
{ "type": "Feature", "properties": { "water_type": "water", "name": "" }, "geometry": { "type": "Polygon", "coordinates": [ [ [ 80.2685524, 13.0364032 ], [ 80.2688169, 13.0367831 ], [ 80.2690471, 13.0371968 ], [ 80.269176, 13.0376495 ], [ 80.2692837, 13.0381703 ], [ 80.2694105, 13.0391088 ], [ 80.2695309, 13.039578 ], [ 80.269776, 13.0401913 ], [ 80.2699936, 13.0405515 ], [ 80.270357, 13.0410002 ], [ 80.2706541, 13.0414118 ], [ 80.2713553, 13.0419036 ], [ 80.2720153, 13.0421568 ], [ 80.2724886, 13.0422021 ], [ 80.2727801, 13.0421939 ], [ 80.2738835, 13.0418748 ], [ 80.2747385, 13.0415806 ], [ 80.2749666, 13.0415518 ], [ 80.2752856, 13.0415867 ], [ 80.2754842, 13.0416588 ], [ 80.2756511, 13.0418749 ], [ 80.275911, 13.0424223 ], [ 80.2760927, 13.0429142 ], [ 80.2761307, 13.0432332 ], [ 80.2763166, 13.043225 ], [ 80.2762427, 13.0428093 ], [ 80.2760483, 13.042305 ], [ 80.2757208, 13.0418255 ], [ 80.2754483, 13.0414982 ], [ 80.2753089, 13.0414365 ], [ 80.2750047, 13.0414571 ], [ 80.2749096, 13.0414406 ], [ 80.2745906, 13.0415229 ], [ 80.2743223, 13.0416238 ], [ 80.2736061, 13.0418008 ], [ 80.2729787, 13.0419819 ], [ 80.2726914, 13.0420333 ], [ 80.2723956, 13.0420622 ], [ 80.272047, 13.0420272 ], [ 80.271559, 13.0418996 ], [ 80.2713816, 13.0418111 ], [ 80.2712337, 13.0415065 ], [ 80.2706464, 13.0410269 ], [ 80.2704013, 13.0408211 ], [ 80.2700865, 13.040428 ], [ 80.2700971, 13.0403766 ], [ 80.2699091, 13.0400493 ], [ 80.2696746, 13.0393825 ], [ 80.2695943, 13.0392652 ], [ 80.2694422, 13.0380591 ], [ 80.269326, 13.0374972 ], [ 80.2690809, 13.0369786 ], [ 80.2688232, 13.0364579 ], [ 80.2687399, 13.036306 ], [ 80.2685524, 13.0364032 ] ] ] } },
{ "type": "Feature", "properties": { "water_type": "water", "name": "Madhava Perumal Temple Tank" }, "geometry": { "type": "Polygon", "coordinates": [ [ [ 80.271399, 13.0377613 ], [ 80.2716945, 13.0377353 ], [ 80.2716723, 13.0374965 ], [ 80.2713768, 13.0375225 ], [ 80.271399, 13.0377613 ] ] ] } },
{ "type": "Feature", "properties": { "water_type": "water", "name": "" }, "geometry": { "type": "Polygon", "coordinates": [ [ [ 80.2661333, 13.021978 ], [ 80.2662767, 13.0218605 ], [ 80.2662975, 13.0218099 ], [ 80.2663537, 13.021737 ], [ 80.2663765, 13.0216215 ], [ 80.2663744, 13.0215729 ], [ 80.2662871, 13.021338 ], [ 80.266256, 13.0213096 ], [ 80.2661603, 13.0213015 ], [ 80.2660564, 13.021259 ], [ 80.2659961, 13.0212063 ], [ 80.2659795, 13.0211435 ], [ 80.2660292, 13.0208851 ], [ 80.266138, 13.0206588 ], [ 80.2662879, 13.0206903 ], [ 80.266335, 13.0207677 ], [ 80.2662673, 13.0209768 ], [ 80.2663438, 13.0210254 ], [ 80.266429, 13.020971 ], [ 80.2666172, 13.0204297 ], [ 80.2668083, 13.0201948 ], [ 80.2668171, 13.02 ], [ 80.2667436, 13.0199427 ], [ 80.2665819, 13.0199513 ], [ 80.266429, 13.0198453 ], [ 80.2664202, 13.019874 ], [ 80.2663879, 13.0200229 ], [ 80.266282, 13.0200229 ], [ 80.2661262, 13.0199398 ], [ 80.2661056, 13.0198195 ], [ 80.2661203, 13.0197479 ], [ 80.2660557, 13.0196677 ], [ 80.2658646, 13.0194644 ], [ 80.2658146, 13.0194959 ], [ 80.2657323, 13.0196992 ], [ 80.265647, 13.0197422 ], [ 80.2652001, 13.0197451 ], [ 80.2651413, 13.0197909 ], [ 80.265209, 13.0200458 ], [ 80.2651796, 13.0201232 ], [ 80.265059, 13.0201404 ], [ 80.265009, 13.0200544 ], [ 80.2649855, 13.0198425 ], [ 80.2649003, 13.0197766 ], [ 80.2648709, 13.0198195 ], [ 80.2649267, 13.0200745 ], [ 80.2648562, 13.0202234 ], [ 80.2647944, 13.020232 ], [ 80.2647474, 13.0201776 ], [ 80.2647444, 13.0200143 ], [ 80.264621, 13.0199685 ], [ 80.2644446, 13.0200201 ], [ 80.264277, 13.0201489 ], [ 80.2641741, 13.0202607 ], [ 80.2640918, 13.0204612 ], [ 80.2642064, 13.0206474 ], [ 80.2644387, 13.0206932 ], [ 80.2645622, 13.0208106 ], [ 80.264715, 13.0207762 ], [ 80.2648268, 13.0208507 ], [ 80.2649326, 13.0208966 ], [ 80.2651119, 13.020865 ], [ 80.2651943, 13.0209682 ], [ 80.2653765, 13.0214265 ], [ 80.2655647, 13.0217129 ], [ 80.2656094, 13.0217937 ], [ 80.2656198, 13.0219679 ], [ 80.2657342, 13.0221117 ], [ 80.2658859, 13.0222717 ], [ 80.2659836, 13.0224965 ], [ 80.2660938, 13.0225816 ], [ 80.2662684, 13.0225775 ], [ 80.2664181, 13.0224661 ], [ 80.2664493, 13.0223284 ], [ 80.2663724, 13.0221096 ], [ 80.2662206, 13.0220388 ], [ 80.2661395, 13.0220388 ], [ 80.2661333, 13.021978 ] ] ] } },
{ "type": "Feature", "properties": { "water_type": "water", "name": "" }, "geometry": { "type": "Polygon", "coordinates": [ [ [ 80.247729, 13.0068583 ], [ 80.2477274, 13.0070134 ], [ 80.247807, 13.0088116 ], [ 80.2478182, 13.0090971 ], [ 80.2479057, 13.0106781 ], [ 80.2479694, 13.0117673 ], [ 80.2479838, 13.0118216 ], [ 80.248057, 13.0118207 ], [ 80.2483415, 13.0118022 ], [ 80.2483583, 13.0117542 ], [ 80.2483251, 13.0112771 ], [ 80.2482789, 13.0107982 ], [ 80.2482768, 13.0107759 ], [ 80.2481892, 13.0084967 ], [ 80.2481032, 13.0068365 ], [ 80.247858, 13.0068319 ], [ 80.247729, 13.0068583 ] ] ] } },
{ "type": "Feature", "properties": { "water_type": "water", "name": "" }, "geometry": { "type": "Polygon", "coordinates": [ [ [ 80.248057, 13.0118207 ], [ 80.2480379, 13.0118681 ], [ 80.2480172, 13.0124841 ], [ 80.2480968, 13.0132288 ], [ 80.2482274, 13.0145305 ], [ 80.2482863, 13.0151138 ], [ 80.2482831, 13.0152317 ], [ 80.2483054, 13.0158415 ], [ 80.2483969, 13.0180159 ], [ 80.2484677, 13.0180112 ], [ 80.2485252, 13.0180109 ], [ 80.2485907, 13.0180085 ], [ 80.2484949, 13.0158554 ], [ 80.2485109, 13.0157918 ], [ 80.2484472, 13.0152069 ], [ 80.2481048, 13.0125678 ], [ 80.2481271, 13.0123537 ], [ 80.2481956, 13.0120807 ], [ 80.2483415, 13.0118022 ], [ 80.248057, 13.0118207 ] ] ] } },
{ "type": "Feature", "properties": { "water_type": "drain", "name": "" }, "geometry": { "type": "LineString", "coordinates": [ [ 80.2435144, 13.0333872 ], [ 80.2432205, 13.0336376 ], [ 80.243244, 13.03372 ], [ 80.2435849, 13.0347484 ], [ 80.2437611, 13.0349948 ] ] } },
{ "type": "Feature", "properties": { "water_type": "water", "name": "" }, "geometry": { "type": "Polygon", "coordinates": [ [ [ 80.265934, 13.0109512 ], [ 80.2659507, 13.0109279 ], [ 80.2660096, 13.010929 ], [ 80.2660118, 13.0109512 ], [ 80.2660895, 13.0109157 ], [ 80.2661106, 13.0108646 ], [ 80.2661139, 13.0108257 ], [ 80.266084, 13.0107513 ], [ 80.2660418, 13.0107591 ], [ 80.266014, 13.0107247 ], [ 80.2658885, 13.0107946 ], [ 80.2658774, 13.0108468 ], [ 80.265934, 13.0109512 ] ] ] } },
{ "type": "Feature", "properties": { "water_type": "coastline", "name": "" }, "geometry": { "type": "LineString", "coordinates": [ [ 80.2715128, 12.993815 ], [ 80.2723558, 12.9959798 ], [ 80.2723865, 12.9961023 ], [ 80.2723993, 12.9961762 ], [ 80.2724559, 12.9963186 ], [ 80.2724735, 12.9963947 ], [ 80.2725028, 12.9965025 ], [ 80.2725344, 12.996578 ], [ 80.272559, 12.9966456 ], [ 80.2726613, 12.9970149 ], [ 80.2727033, 12.9973 ], [ 80.2727597, 12.9976138 ], [ 80.2727916, 12.9977908 ], [ 80.2728389, 12.9979714 ], [ 80.2728802, 12.99813 ], [ 80.2729275, 12.9982429 ], [ 80.2729524, 12.9983122 ], [ 80.2729832, 12.9985252 ], [ 80.2730333, 12.9988571 ], [ 80.2730825, 12.9991368 ], [ 80.2731764, 12.9995101 ], [ 80.2732188, 12.9997466 ], [ 80.273263, 12.9998894 ], [ 80.2732978, 12.9999709 ], [ 80.2733197, 12.9999921 ], [ 80.273344, 13.0000442 ], [ 80.2733501, 13.0000961 ], [ 80.2733481, 13.0001442 ], [ 80.2733495, 13.0001785 ], [ 80.2733515, 13.0002239 ], [ 80.2733623, 13.000256 ], [ 80.2733868, 13.000301 ], [ 80.2733946, 13.0003506 ], [ 80.2733992, 13.0004049 ], [ 80.2735205, 13.0009824 ], [ 80.2736015, 13.0013552 ], [ 80.2737065, 13.0016472 ], [ 80.2737564, 13.0018053 ], [ 80.2737966, 13.0019231 ], [ 80.2738362, 13.0020104 ], [ 80.2738794, 13.0020957 ], [ 80.273975, 13.002288 ], [ 80.2740209, 13.0024116 ], [ 80.2741014, 13.002733 ], [ 80.2741753, 13.0029871 ], [ 80.2742655, 13.0033106 ], [ 80.2743141, 13.0034834 ], [ 80.2743309, 13.0035696 ], [ 80.2743316, 13.0036511 ], [ 80.2743892, 13.0038664 ], [ 80.2744893, 13.0041311 ], [ 80.2745527, 13.0042702 ], [ 80.2746251, 13.00439 ], [ 80.2746679, 13.0044841 ], [ 80.2747051, 13.0046091 ], [ 80.2747417, 13.0047384 ], [ 80.274774, 13.0048324 ], [ 80.2748168, 13.004925 ], [ 80.2748581, 13.005094 ], [ 80.2748965, 13.0052088 ], [ 80.2749387, 13.0052779 ], [ 80.2749822, 13.0053667 ], [ 80.2750733, 13.0056275 ], [ 80.275094, 13.0057013 ], [ 80.2751557, 13.0058489 ], [ 80.2752296, 13.0060004 ], [ 80.2752556, 13.0060316 ], [ 80.2752843, 13.0060836 ], [ 80.2752986, 13.0061344 ], [ 80.2753038, 13.0061692 ], [ 80.2753135, 13.0061815 ], [ 80.2753384, 13.0062118 ], [ 80.2753436, 13.0062339 ], [ 80.2753416, 13.0062633 ], [ 80.2753504, 13.0063016 ], [ 80.2753645, 13.0063349 ], [ 80.2754244, 13.0064706 ], [ 80.2754754, 13.0065984 ], [ 80.2754755, 13.006622 ], [ 80.2754767, 13.0066457 ], [ 80.2754831, 13.0066664 ], [ 80.2755196, 13.0067149 ], [ 80.2755692, 13.0067879 ], [ 80.2756149, 13.0068708 ], [ 80.2757138, 13.0071067 ], [ 80.2758425, 13.0074717 ], [ 80.2759231, 13.0076758 ], [ 80.2760973, 13.0080476 ], [ 80.2762957, 13.0084708 ], [ 80.2764132, 13.0087473 ], [ 80.2765625, 13.0091324 ], [ 80.2766851, 13.0094854 ], [ 80.276775, 13.0097684 ], [ 80.2768508, 13.010037 ], [ 80.276889, 13.0101441 ], [ 80.2769572, 13.0102691 ], [ 80.2770369, 13.0104612 ], [ 80.2770693, 13.0105436 ], [ 80.2770949, 13.0106678 ], [ 80.277119, 13.0107826 ], [ 80.2771211, 13.0108557 ], [ 80.277159, 13.0109506 ], [ 80.2771952, 13.0111125 ], [ 80.2772047, 13.0111745 ], [ 80.2772122, 13.0112578 ] ] } },
{ "type": "Feature", "properties": { "water_type": "drain", "name": "" }, "geometry": { "type": "LineString", "coordinates": [ [ 80.2438747, 13.0240684 ], [ 80.2441628, 13.0243911 ], [ 80.2443461, 13.0245742 ], [ 80.2449117, 13.025047 ] ] } },
{ "type": "Feature", "properties": { "water_type": "water", "name": "Tharamani Pond" }, "geometry": { "type": "Polygon", "coordinates": [ [ [ 80.2409555, 12.9853837 ], [ 80.241093, 12.9853771 ], [ 80.2412197, 12.9853183 ], [ 80.2412204, 12.9852053 ], [ 80.2411922, 12.985057 ], [ 80.2411627, 12.9849871 ], [ 80.2410521, 12.984976 ], [ 80.2408093, 12.9850034 ], [ 80.2407221, 12.9850413 ], [ 80.2407282, 12.9851092 ], [ 80.2407597, 12.9852595 ], [ 80.24081, 12.985383 ], [ 80.2409555, 12.9853837 ] ] ] } },
{ "type": "Feature", "properties": { "water_type": "water", "name": "temple pond" }, "geometry": { "type": "Polygon", "coordinates": [ [ [ 80.2605598, 12.9847 ], [ 80.2607287, 12.9846889 ], [ 80.260717, 12.9845206 ], [ 80.2606328, 12.9845262 ], [ 80.2606347, 12.9845529 ], [ 80.2606078, 12.9845547 ], [ 80.2606062, 12.9845313 ], [ 80.2605483, 12.9845351 ], [ 80.2605598, 12.9847 ] ] ] } },
{ "type": "Feature", "properties": { "water_type": "coastline", "name": "" }, "geometry": { "type": "LineString", "coordinates": [ [ 80.2690739, 12.9832647 ], [ 80.2692239, 12.9844607 ], [ 80.2697503, 12.9865124 ], [ 80.270538, 12.9901105 ], [ 80.2707134, 12.9907184 ], [ 80.2708343, 12.9912922 ], [ 80.2710566, 12.99228 ], [ 80.271271, 12.9931121 ], [ 80.2715128, 12.993815 ] ] } },
{ "type": "Feature", "properties": { "water_type": "canal", "name": "Buckingham Kaalvaai" }, "geometry": { "type": "LineString", "coordinates": [ [ 80.2479894, 13.0061275 ], [ 80.2479776, 13.0056313 ], [ 80.2479856, 13.005299 ], [ 80.2479658, 13.004558 ], [ 80.2479635, 13.004344 ], [ 80.2479723, 13.0036629 ], [ 80.2480712, 13.0031549 ], [ 80.2492698, 12.9983525 ], [ 80.249707, 12.9969825 ], [ 80.2502067, 12.9950319 ], [ 80.2501978, 12.9946535 ], [ 80.2510045, 12.9917066 ], [ 80.2513353, 12.9908874 ], [ 80.2519952, 12.98845 ], [ 80.2519653, 12.9880872 ], [ 80.2520739, 12.9875439 ], [ 80.2524287, 12.9860048 ], [ 80.2536181, 12.981402 ], [ 80.253723128177754, 12.98 ] ] } },
{ "type": "Feature", "properties": { "water_type": "coastline", "name": "" }, "geometry": { "type": "LineString", "coordinates": [ [ 80.268277787652764, 12.98 ], [ 80.2686239, 12.981478 ], [ 80.2690739, 12.9832647 ] ] } },
{ "type": "Feature", "properties": { "water_type": "coastline", "name": "" }, "geometry": { "type": "LineString", "coordinates": [ [ 80.2772122, 13.0112578 ], [ 80.2773716, 13.0121204 ], [ 80.2774629, 13.0126145 ], [ 80.2775416, 13.0131003 ] ] } },
{ "type": "Feature", "properties": { "water_type": "drain", "name": "" }, "geometry": { "type": "LineString", "coordinates": [ [ 80.2409961, 13.0287581 ], [ 80.2409894, 13.0287325 ], [ 80.2403778, 13.0260984 ] ] } },
{ "type": "Feature", "properties": { "water_type": "drain", "name": "" }, "geometry": { "type": "LineString", "coordinates": [ [ 80.2410215, 13.0288542 ], [ 80.2409961, 13.0287581 ] ] } },
{ "type": "Feature", "properties": { "water_type": "drain", "name": "" }, "geometry": { "type": "LineString", "coordinates": [ [ 80.241806, 13.0315962 ], [ 80.2414479, 13.0304369 ] ] } },
{ "type": "Feature", "properties": { "water_type": "drain", "name": "" }, "geometry": { "type": "LineString", "coordinates": [ [ 80.2414479, 13.0304369 ], [ 80.2414312, 13.0303828 ], [ 80.2414098, 13.0303135 ] ] } },
{ "type": "Feature", "properties": { "water_type": "canal", "name": "Mambalam Canal" }, "geometry": { "type": "LineString", "coordinates": [ [ 80.2467588, 13.0429537 ], [ 80.2464322, 13.0413913 ], [ 80.2463936, 13.0411727 ], [ 80.2458751, 13.0395267 ] ] } },
{ "type": "Feature", "properties": { "water_type": "canal", "name": "Mambalam Canal" }, "geometry": { "type": "LineString", "coordinates": [ [ 80.2467912, 13.0430535 ], [ 80.2467588, 13.0429537 ] ] } },
{ "type": "Feature", "properties": { "water_type": "canal", "name": "Mambalam Canal" }, "geometry": { "type": "LineString", "coordinates": [ [ 80.2458751, 13.0395267 ], [ 80.2457923, 13.0393161 ] ] } },
{ "type": "Feature", "properties": { "water_type": "canal", "name": "Mambalam Canal" }, "geometry": { "type": "LineString", "coordinates": [ [ 80.247217089075619, 13.05 ], [ 80.2471976, 13.0498216 ], [ 80.2469932, 13.0494763 ], [ 80.2470507, 13.0493951 ], [ 80.2471327, 13.0491891 ], [ 80.2470421, 13.049037 ], [ 80.2469658, 13.0488741 ], [ 80.2468374, 13.048725 ], [ 80.2467208, 13.0485566 ], [ 80.2466443, 13.0483717 ], [ 80.2467396, 13.0481491 ], [ 80.2468931, 13.0477715 ], [ 80.2469955, 13.0465482 ], [ 80.2471399, 13.0451029 ], [ 80.2470395, 13.0440574 ], [ 80.2467912, 13.0430535 ] ] } },
{ "type": "Feature", "properties": { "water_type": "water", "name": "" }, "geometry": { "type": "Polygon", "coordinates": [ [ [ 80.2536678, 13.0498702 ], [ 80.2536786, 13.0499486 ], [ 80.2537188, 13.0499774 ], [ 80.2537912, 13.0499774 ], [ 80.2538636, 13.049946 ], [ 80.2538663, 13.0498885 ], [ 80.2538234, 13.0498049 ], [ 80.2537617, 13.0497814 ], [ 80.2537134, 13.0497919 ], [ 80.2536678, 13.0498702 ] ] ] } },
{ "type": "Feature", "properties": { "water_type": "water", "name": "" }, "geometry": { "type": "Polygon", "coordinates": [ [ [ 80.254459, 13.0495396 ], [ 80.2545202, 13.0497031 ], [ 80.2545379, 13.0497235 ], [ 80.2546879, 13.0497828 ], [ 80.2547116, 13.0497891 ], [ 80.2547347, 13.049839 ], [ 80.2547578, 13.049854 ], [ 80.2548579, 13.0498112 ], [ 80.2548624, 13.0497452 ], [ 80.2548608, 13.04962 ], [ 80.2547922, 13.0495052 ], [ 80.2547741, 13.0494939 ], [ 80.2544793, 13.0495277 ], [ 80.254459, 13.0495396 ] ] ] } },
{ "type": "Feature", "properties": { "water_type": "water", "name": "" }, "geometry": { "type": "Polygon", "coordinates": [ [ [ 80.2465725, 12.9962669 ], [ 80.2466198, 12.9962694 ], [ 80.2466247, 12.9961411 ], [ 80.2465735, 12.9961395 ], [ 80.2465725, 12.9962507 ], [ 80.2465725, 12.9962669 ] ] ] } },
{ "type": "Feature", "properties": { "water_type": "stream", "name": "" }, "geometry": { "type": "LineString", "coordinates": [ [ 80.2430008, 13.0062794 ], [ 80.2428216, 13.0055646 ], [ 80.242592, 13.0051663 ], [ 80.242256, 13.0047379 ], [ 80.2420068, 13.0041896 ], [ 80.2420796, 13.0036276 ], [ 80.2422224, 13.0032293 ], [ 80.2424002, 13.0028736 ], [ 80.2426896, 13.0022798 ], [ 80.2427384, 13.0019532 ], [ 80.2429456, 13.0008814 ], [ 80.2430734, 13.0002979 ] ] } },
{ "type": "Feature", "properties": { "water_type": "water", "name": "" }, "geometry": { "type": "Polygon", "coordinates": [ [ [ 80.2400012, 12.996671 ], [ 80.2400286, 12.9966732 ], [ 80.2400753, 12.9966832 ], [ 80.2401175, 12.9966743 ], [ 80.2401495, 12.9966421 ], [ 80.2401757, 12.9966299 ], [ 80.2402167, 12.9966121 ], [ 80.2402624, 12.9965888 ], [ 80.2403114, 12.9966099 ], [ 80.2403365, 12.9966465 ], [ 80.2403787, 12.996681 ], [ 80.2404129, 12.996701 ], [ 80.240438, 12.9967121 ], [ 80.2404733, 12.996721 ], [ 80.2405075, 12.9967254 ], [ 80.2405554, 12.9967354 ], [ 80.2405896, 12.9967354 ], [ 80.2406455, 12.9967176 ], [ 80.2406934, 12.9966832 ], [ 80.2407059, 12.996631 ], [ 80.2407048, 12.9965999 ], [ 80.240698, 12.9965476 ], [ 80.2406934, 12.9964854 ], [ 80.2406774, 12.9964132 ], [ 80.2406626, 12.9963788 ], [ 80.2406387, 12.9963643 ], [ 80.2405543, 12.996351 ], [ 80.2405155, 12.9963688 ], [ 80.2404539, 12.9963754 ], [ 80.2404117, 12.9963821 ], [ 80.2403809, 12.996391 ], [ 80.2403433, 12.9964088 ], [ 80.2403171, 12.9964276 ], [ 80.240276, 12.9964421 ], [ 80.2402179, 12.9964421 ], [ 80.2401381, 12.9964688 ], [ 80.2400662, 12.9964832 ], [ 80.2400103, 12.9964932 ], [ 80.24, 12.996496185993486 ], [ 80.24, 12.996671034108527 ], [ 80.2400012, 12.996671 ] ] ] } },
{ "type": "Feature", "properties": { "water_type": "canal", "name": "" }, "geometry": { "type": "LineString", "coordinates": [ [ 80.2451696, 12.9900427 ], [ 80.2449429, 12.9899216 ], [ 80.2429149, 12.9897354 ], [ 80.2427241, 12.9897829 ], [ 80.2416682, 12.9896971 ], [ 80.2416425, 12.9896996 ] ] } },
{ "type": "Feature", "properties": { "water_type": "canal", "name": "" }, "geometry": { "type": "LineString", "coordinates": [ [ 80.2415559, 12.9897102 ], [ 80.2413335, 12.9897292 ], [ 80.2408395, 12.989854 ], [ 80.2403124, 12.9899165 ] ] } },
{ "type": "Feature", "properties": { "water_type": "canal", "name": "" }, "geometry": { "type": "LineString", "coordinates": [ [ 80.2416425, 12.9896996 ], [ 80.2415559, 12.9897102 ] ] } },
{ "type": "Feature", "properties": { "water_type": "canal", "name": "Buckingham Kaalvaai" }, "geometry": { "type": "LineString", "coordinates": [ [ 80.278450964788419, 13.05 ], [ 80.2780745, 13.0492846 ], [ 80.2769591, 13.0461078 ], [ 80.2761868, 13.0437838 ], [ 80.2762034, 13.0431396 ], [ 80.276024, 13.0424546 ], [ 80.2757183, 13.0419189 ], [ 80.2755627, 13.0416603 ], [ 80.2754259, 13.0415636 ], [ 80.2751791, 13.0415061 ], [ 80.2749914, 13.0414956 ], [ 80.2746883, 13.041527 ], [ 80.274302, 13.0417151 ], [ 80.2738118, 13.0418409 ], [ 80.2733002, 13.0420144 ], [ 80.2726678, 13.0421406 ], [ 80.272123, 13.0421046 ], [ 80.271853, 13.0420372 ], [ 80.2713194, 13.041859 ], [ 80.2711806, 13.0415537 ], [ 80.2704635, 13.0409714 ], [ 80.2698958, 13.0402049 ], [ 80.2696307, 13.0395648 ], [ 80.2694028, 13.0380872 ], [ 80.2692817, 13.0375617 ], [ 80.2688177, 13.0365744 ], [ 80.268602, 13.0363139 ], [ 80.2684345, 13.0361671 ], [ 80.268281, 13.0360596 ], [ 80.2679593, 13.0359254 ], [ 80.2676111, 13.035794 ], [ 80.2672787, 13.0354747 ], [ 80.2665753, 13.034594 ], [ 80.2660494, 13.0342124 ], [ 80.265677, 13.0340797 ], [ 80.2649363, 13.0337083 ], [ 80.2643955, 13.0333721 ], [ 80.2636979, 13.0327703 ], [ 80.2631314, 13.0322936 ], [ 80.2618868, 13.0310895 ], [ 80.261698, 13.0308052 ], [ 80.261492, 13.0304373 ], [ 80.261183, 13.0298101 ], [ 80.2606873, 13.028567 ], [ 80.2603315, 13.0277504 ], [ 80.2605254, 13.0274532 ], [ 80.2602096, 13.026515 ], [ 80.2599025, 13.025899 ], [ 80.2593767, 13.0254876 ], [ 80.2586229, 13.0249566 ], [ 80.2578222, 13.0245247 ], [ 80.257157, 13.024234 ], [ 80.2563909, 13.0237073 ], [ 80.2554525, 13.0232928 ], [ 80.2542334, 13.0229897 ], [ 80.2534033, 13.0225853 ], [ 80.2532134, 13.0224346 ], [ 80.2526362, 13.0219115 ], [ 80.2523504, 13.0214867 ], [ 80.2521057, 13.0210934 ], [ 80.2515907, 13.0202503 ], [ 80.2511658, 13.0196901 ], [ 80.2508408, 13.0195113 ], [ 80.2506182, 13.0193283 ], [ 80.2504116, 13.0192499 ], [ 80.2497679, 13.0187796 ], [ 80.2494138, 13.018594 ], [ 80.2486874, 13.018374 ], [ 80.2485269, 13.0182544 ], [ 80.2484963, 13.017981 ], [ 80.2483383, 13.0153412 ], [ 80.2482621, 13.0144466 ], [ 80.248059, 13.0125203 ], [ 80.2480993, 13.0120094 ], [ 80.2482199, 13.0117443 ], [ 80.2480142, 13.0071749 ], [ 80.2479917, 13.0062266 ] ] } },
{ "type": "Feature", "properties": { "water_type": "canal", "name": "Buckingham Kaalvaai" }, "geometry": { "type": "LineString", "coordinates": [ [ 80.2479917, 13.0062266 ], [ 80.2479894, 13.0061275 ] ] } },
{ "type": "Feature", "properties": { "water_type": "water", "name": "" }, "geometry": { "type": "Polygon", "coordinates": [ [ [ 80.2723663, 13.0107497 ], [ 80.2723344, 13.0107346 ], [ 80.2722848, 13.0107282 ], [ 80.272245, 13.0107314 ], [ 80.2719525, 13.0107347 ], [ 80.271831, 13.0107205 ], [ 80.2716374, 13.0106813 ], [ 80.2715267, 13.0106677 ], [ 80.2713745, 13.0106929 ], [ 80.2712469, 13.0106883 ], [ 80.271062, 13.0106392 ], [ 80.27095, 13.0106434 ], [ 80.2707998, 13.0106785 ], [ 80.2706864, 13.0107128 ], [ 80.2705845, 13.010743 ], [ 80.2705928, 13.0107518 ], [ 80.2706392, 13.0107632 ], [ 80.2707437, 13.0107573 ], [ 80.2708607, 13.0107584 ], [ 80.2710412, 13.0107758 ], [ 80.2712666, 13.0107986 ], [ 80.2714062, 13.0107963 ], [ 80.2714949, 13.0108502 ], [ 80.2715399, 13.0110004 ], [ 80.2716501, 13.0111732 ], [ 80.2717009, 13.0112926 ], [ 80.2716872, 13.0113869 ], [ 80.2716003, 13.0114095 ], [ 80.2714951, 13.0113939 ], [ 80.2713822, 13.0113685 ], [ 80.271087, 13.0114142 ], [ 80.2708279, 13.0114124 ], [ 80.2706583, 13.0113752 ], [ 80.2705265, 13.011375 ], [ 80.2704202, 13.0113793 ], [ 80.2703186, 13.011402 ], [ 80.2701694, 13.0114392 ], [ 80.2699142, 13.0114636 ], [ 80.2697573, 13.011479 ], [ 80.2696399, 13.0114838 ], [ 80.2694261, 13.0115148 ], [ 80.2692816, 13.0115528 ], [ 80.2691115, 13.0115868 ], [ 80.26884, 13.011607 ], [ 80.2676119, 13.0116664 ], [ 80.2671645, 13.0117103 ], [ 80.2669164, 13.0117571 ], [ 80.2666592, 13.0118675 ], [ 80.2663126, 13.0119924 ], [ 80.2660138, 13.0120561 ], [ 80.2656691, 13.0120733 ], [ 80.2652269, 13.0120709 ], [ 80.2648999, 13.0120233 ], [ 80.2646003, 13.0119669 ], [ 80.2642698, 13.0119445 ], [ 80.2639712, 13.0119517 ], [ 80.263688, 13.0119311 ], [ 80.2631891, 13.0118613 ], [ 80.2629858, 13.0118032 ], [ 80.262681, 13.0116816 ], [ 80.2624716, 13.0116018 ], [ 80.2624061, 13.0115817 ], [ 80.2623188, 13.0115675 ], [ 80.2622217, 13.0115743 ], [ 80.262098, 13.0115938 ], [ 80.261825, 13.0115987 ], [ 80.2612426, 13.0116662 ], [ 80.260547, 13.0117566 ], [ 80.2593981, 13.0118367 ], [ 80.2589296, 13.0117326 ], [ 80.2588989, 13.0113271 ], [ 80.2588738, 13.0112589 ], [ 80.2588247, 13.0112046 ], [ 80.2587509, 13.0111547 ], [ 80.2586064, 13.0111008 ], [ 80.2583707, 13.0110288 ], [ 80.2580758, 13.0109515 ], [ 80.2578538, 13.0108953 ], [ 80.2576579, 13.0108436 ], [ 80.2575274, 13.0108243 ], [ 80.2574135, 13.0108204 ], [ 80.257252, 13.0108361 ], [ 80.2571254, 13.0108618 ], [ 80.2569802, 13.0109012 ], [ 80.2568519, 13.0109329 ], [ 80.2567316, 13.0109426 ], [ 80.2563041, 13.0109176 ], [ 80.2561821, 13.0109138 ], [ 80.2561057, 13.0109154 ], [ 80.2560326, 13.010926 ], [ 80.2559349, 13.010952 ], [ 80.2558376, 13.0109821 ], [ 80.2556866, 13.0110313 ], [ 80.2555594, 13.0110667 ], [ 80.2554909, 13.0110849 ], [ 80.2554393, 13.0111074 ], [ 80.2553544, 13.011161 ], [ 80.2551895, 13.0112825 ], [ 80.2550155, 13.0114384 ], [ 80.2546234, 13.0117403 ], [ 80.2544446, 13.0118796 ], [ 80.2538268, 13.0123479 ], [ 80.2533301, 13.0126893 ], [ 80.2531294, 13.0128379 ], [ 80.2529764, 13.0129726 ], [ 80.2526785, 13.0131885 ], [ 80.2525213, 13.0132975 ], [ 80.2523888, 13.0133668 ], [ 80.2522233, 13.0134225 ], [ 80.2520882, 13.0134588 ], [ 80.2519947, 13.0134879 ], [ 80.2519221, 13.0135163 ], [ 80.2518695, 13.0135414 ], [ 80.2518037, 13.0135864 ], [ 80.2517292, 13.0136628 ], [ 80.2515923, 13.0138306 ], [ 80.2515143, 13.0139191 ], [ 80.251447, 13.0139786 ], [ 80.2513454, 13.0140513 ], [ 80.2511258, 13.0141977 ], [ 80.2510341, 13.0142739 ], [ 80.2509267, 13.0143703 ], [ 80.2506393, 13.0146163 ], [ 80.2504688, 13.0147782 ], [ 80.2502957, 13.0149671 ], [ 80.2501826, 13.0150953 ], [ 80.2500694, 13.0152409 ], [ 80.2499557, 13.0154067 ], [ 80.249819, 13.0156765 ], [ 80.2495801, 13.0161239 ], [ 80.2494165, 13.0163779 ], [ 80.2492783, 13.0165768 ], [ 80.249204, 13.0167091 ], [ 80.2491461, 13.0168658 ], [ 80.249116, 13.0169784 ], [ 80.2490028, 13.0172062 ], [ 80.2489222, 13.0174362 ], [ 80.24885, 13.0176132 ], [ 80.248786, 13.017777 ], [ 80.2487219, 13.0179171 ], [ 80.2486841, 13.0179876 ], [ 80.2486268, 13.0180536 ], [ 80.2485848, 13.0180917 ], [ 80.248536, 13.0181019 ], [ 80.2485292, 13.0180576 ], [ 80.2485252, 13.0180109 ], [ 80.2484677, 13.0180112 ], [ 80.2484672, 13.0181316 ], [ 80.2484691, 13.0181844 ], [ 80.2484385, 13.0182652 ], [ 80.2483982, 13.0183807 ], [ 80.2483677, 13.0184787 ], [ 80.2483119, 13.0186219 ], [ 80.2482654, 13.0187269 ], [ 80.2482564, 13.0187829 ], [ 80.248256, 13.0188739 ], [ 80.2482262, 13.0189293 ], [ 80.2481764, 13.0190179 ], [ 80.2481007, 13.0191684 ], [ 80.2479803, 13.0194586 ], [ 80.2479395, 13.0195818 ], [ 80.2478867, 13.0198108 ], [ 80.2478374, 13.0200094 ], [ 80.2477824, 13.0202919 ], [ 80.2477273, 13.0205406 ], [ 80.2477084, 13.0207097 ], [ 80.2476717, 13.020966 ], [ 80.2476277, 13.0210939 ], [ 80.2475506, 13.0212543 ], [ 80.2474347, 13.021479 ], [ 80.2473949, 13.0215823 ], [ 80.2473453, 13.0217194 ], [ 80.2472998, 13.0217875 ], [ 80.247266, 13.0218561 ], [ 80.2472455, 13.0219497 ], [ 80.2472232, 13.0220321 ], [ 80.2472024, 13.0220925 ], [ 80.2471707, 13.0221433 ], [ 80.2471279, 13.0221905 ], [ 80.247008, 13.0222979 ], [ 80.2468951, 13.0223978 ], [ 80.2467674, 13.0225095 ], [ 80.2464179, 13.0227918 ], [ 80.246226, 13.0229655 ], [ 80.24607, 13.0231056 ], [ 80.2458733, 13.0232708 ], [ 80.245714, 13.0233859 ], [ 80.2456352, 13.0234351 ], [ 80.2455752, 13.023488 ], [ 80.245513, 13.0235425 ], [ 80.2453997, 13.0236238 ], [ 80.2453196, 13.0236952 ], [ 80.2452143, 13.0238061 ], [ 80.2451365, 13.0239019 ], [ 80.2451095, 13.0239563 ], [ 80.2450459, 13.024041 ], [ 80.2448759, 13.0242188 ], [ 80.2446598, 13.0244555 ], [ 80.2444995, 13.024612 ], [ 80.2444349, 13.02469 ], [ 80.2444328, 13.0247487 ], [ 80.2444016, 13.0248089 ], [ 80.2443123, 13.0248856 ], [ 80.2442881, 13.0249332 ], [ 80.2441757, 13.0250388 ], [ 80.2440659, 13.0251758 ], [ 80.2439082, 13.0253323 ], [ 80.2437228, 13.0254977 ], [ 80.2434513, 13.025712 ], [ 80.2428683, 13.0259362 ], [ 80.2422431, 13.025981 ], [ 80.2414531, 13.0259026 ], [ 80.2412805, 13.0258503 ], [ 80.240034, 13.0252337 ], [ 80.24, 13.025203272300343 ], [ 80.24, 13.026398885322271 ], [ 80.2405495, 13.0265374 ], [ 80.2409357, 13.026736 ], [ 80.2414942, 13.0268152 ], [ 80.2416855, 13.0268445 ], [ 80.2422716, 13.0268116 ], [ 80.2426925, 13.0268009 ], [ 80.2429566, 13.0268516 ], [ 80.2430046, 13.0268671 ], [ 80.2438409, 13.0266509 ], [ 80.2437742, 13.0264956 ], [ 80.2439984, 13.0263742 ], [ 80.24453, 13.0258715 ], [ 80.2456779, 13.0248441 ], [ 80.2470834, 13.023642 ], [ 80.2485476, 13.0221569 ], [ 80.2493892, 13.0211038 ], [ 80.2495844, 13.0205181 ], [ 80.2494803, 13.0200495 ], [ 80.2495063, 13.0190473 ], [ 80.2497615, 13.0185249 ], [ 80.2498455, 13.0183671 ], [ 80.2499223, 13.0182597 ], [ 80.2500076, 13.0181447 ], [ 80.2500997, 13.0180795 ], [ 80.2501622, 13.0180658 ], [ 80.2502005, 13.0180916 ], [ 80.2502984, 13.0182 ], [ 80.2503808, 13.0183292 ], [ 80.2504133, 13.0183497 ], [ 80.2504616, 13.0183153 ], [ 80.2506211, 13.0181534 ], [ 80.2507701, 13.0179521 ], [ 80.2509308, 13.017805 ], [ 80.2510541, 13.0176852 ], [ 80.2511351, 13.0175925 ], [ 80.2511572, 13.017506 ], [ 80.2511864, 13.0174135 ], [ 80.2512354, 13.0173072 ], [ 80.2512959, 13.0172531 ], [ 80.2514431, 13.0171753 ], [ 80.2515867, 13.0171142 ], [ 80.2517309, 13.0170433 ], [ 80.2519712, 13.0169097 ], [ 80.2524017, 13.0166504 ], [ 80.2527105, 13.0164708 ], [ 80.2528464, 13.0164077 ], [ 80.2530225, 13.0163447 ], [ 80.2531773, 13.0163124 ], [ 80.2532877, 13.0163136 ], [ 80.2534247, 13.016327 ], [ 80.2535793, 13.0163097 ], [ 80.2537722, 13.0162655 ], [ 80.2539074, 13.0162069 ], [ 80.254031, 13.0161728 ], [ 80.2541316, 13.0161555 ], [ 80.2542358, 13.0161243 ], [ 80.2543759, 13.0160647 ], [ 80.2544516, 13.0160055 ], [ 80.2545571, 13.0159321 ], [ 80.2547657, 13.0158066 ], [ 80.2550534, 13.0156488 ], [ 80.2552706, 13.0155678 ], [ 80.2555512, 13.0154968 ], [ 80.2557802, 13.0154468 ], [ 80.2559302, 13.0154335 ], [ 80.2560217, 13.0154418 ], [ 80.2561628, 13.0154859 ], [ 80.2563668, 13.0155333 ], [ 80.2564661, 13.0155517 ], [ 80.2566759, 13.0155556 ], [ 80.2568643, 13.0155367 ], [ 80.2570471, 13.015495 ], [ 80.2572339, 13.0154528 ], [ 80.2574135, 13.0153952 ], [ 80.2576175, 13.0153073 ], [ 80.2578664, 13.0152283 ], [ 80.2582097, 13.0151459 ], [ 80.2584565, 13.0151256 ], [ 80.2586477, 13.0151273 ], [ 80.2587618, 13.0151476 ], [ 80.2587963, 13.0151506 ], [ 80.2588547, 13.0151299 ], [ 80.2589361, 13.015042 ], [ 80.2589755, 13.0149523 ], [ 80.2589785, 13.0148175 ], [ 80.2589794, 13.0146846 ], [ 80.2590005, 13.0145766 ], [ 80.2590335, 13.0145054 ], [ 80.2590612, 13.0144814 ], [ 80.2590851, 13.0144699 ], [ 80.2591621, 13.0144487 ], [ 80.2592933, 13.0144353 ], [ 80.259412, 13.0144393 ], [ 80.2595946, 13.0145187 ], [ 80.259765, 13.0145638 ], [ 80.2604786, 13.0146512 ], [ 80.2614201, 13.0148659 ], [ 80.2622308, 13.0154156 ], [ 80.2622196, 13.0154775 ], [ 80.2618722, 13.015503 ], [ 80.2614612, 13.0153938 ], [ 80.2611922, 13.0153719 ], [ 80.2609643, 13.0154484 ], [ 80.2605197, 13.0154593 ], [ 80.2600004, 13.015412 ], [ 80.2596211, 13.0154826 ], [ 80.2596494, 13.015637 ], [ 80.2609887, 13.0158222 ], [ 80.2619405, 13.0158096 ], [ 80.2626629, 13.0156412 ], [ 80.2628977, 13.0155758 ], [ 80.2631045, 13.0156146 ], [ 80.2634318, 13.015687 ], [ 80.2640021, 13.0158534 ], [ 80.2648955, 13.0161737 ], [ 80.2650675, 13.0162366 ], [ 80.2655333, 13.0163902 ], [ 80.2659342, 13.0164904 ], [ 80.266402, 13.016315 ], [ 80.2669616, 13.0162399 ], [ 80.2674294, 13.0162482 ], [ 80.2679222, 13.0161647 ], [ 80.268248, 13.0160477 ], [ 80.2684652, 13.015889 ], [ 80.2684922, 13.0157744 ], [ 80.2685676, 13.0156795 ], [ 80.2686907, 13.0155549 ], [ 80.2689377, 13.0153017 ], [ 80.2692749, 13.0151092 ], [ 80.2695589, 13.015052 ], [ 80.269774, 13.0150306 ], [ 80.2700529, 13.0150585 ], [ 80.270193, 13.0150566 ], [ 80.2703864, 13.0150519 ], [ 80.270536, 13.0150885 ], [ 80.2706799, 13.0150947 ], [ 80.2708076, 13.0151412 ], [ 80.2709345, 13.0151599 ], [ 80.2710911, 13.015193 ], [ 80.2712534, 13.0152865 ], [ 80.2714734, 13.0153863 ], [ 80.2721976, 13.0156441 ], [ 80.2726536, 13.0158041 ], [ 80.2732043, 13.0160166 ], [ 80.2736192, 13.0161392 ], [ 80.2738256, 13.0161923 ], [ 80.2738971, 13.0162403 ], [ 80.2739777, 13.0162875 ], [ 80.2741161, 13.0164088 ], [ 80.2741889, 13.0165034 ], [ 80.2743794, 13.016676 ], [ 80.2745222, 13.0168298 ], [ 80.2746169, 13.0169659 ], [ 80.27481, 13.0172334 ], [ 80.2748919, 13.0174127 ], [ 80.2749342, 13.0175737 ], [ 80.2749898, 13.0179984 ], [ 80.275029, 13.0181449 ], [ 80.2751078, 13.0182903 ], [ 80.2751592, 13.0183835 ], [ 80.275283, 13.0185187 ], [ 80.275379, 13.018668 ], [ 80.2756431, 13.0193583 ], [ 80.2757091, 13.0196206 ], [ 80.2757442, 13.0198653 ], [ 80.2757596, 13.0199635 ], [ 80.2757849, 13.0200832 ], [ 80.2757938, 13.0201759 ], [ 80.2757932, 13.0202644 ], [ 80.2757879, 13.0203318 ], [ 80.2757694, 13.020382 ], [ 80.2757259, 13.0204264 ], [ 80.2756221, 13.0204815 ], [ 80.2755635, 13.0205256 ], [ 80.2754507, 13.02059 ], [ 80.2753788, 13.0206462 ], [ 80.2752887, 13.0207211 ], [ 80.2752057, 13.0207948 ], [ 80.2750534, 13.0209498 ], [ 80.2749761, 13.0210467 ], [ 80.2749525, 13.0211141 ], [ 80.2749496, 13.0212117 ], [ 80.27496, 13.0214126 ], [ 80.2749456, 13.0216111 ], [ 80.2748951, 13.0217284 ], [ 80.2747726, 13.0218698 ], [ 80.2744832, 13.0221097 ], [ 80.2743824, 13.0222045 ], [ 80.2740289, 13.0225514 ], [ 80.2739494, 13.0226039 ], [ 80.273852, 13.0226313 ], [ 80.2736972, 13.0226292 ], [ 80.2732485, 13.0225953 ], [ 80.2731551, 13.022598 ], [ 80.2729521, 13.0225927 ], [ 80.2727348, 13.022557 ], [ 80.2726141, 13.0225351 ], [ 80.2725441, 13.0225261 ], [ 80.2724833, 13.0225559 ], [ 80.2724769, 13.0225842 ], [ 80.2724867, 13.0226156 ], [ 80.2725272, 13.0226614 ], [ 80.2726865, 13.0227912 ], [ 80.2727603, 13.0228452 ], [ 80.2728504, 13.0229276 ], [ 80.272758, 13.0230373 ], [ 80.2728297, 13.0230915 ], [ 80.2735277, 13.0234248 ], [ 80.2737305, 13.0237437 ], [ 80.2740447, 13.0237739 ], [ 80.2756808, 13.0228539 ], [ 80.275716, 13.0223937 ], [ 80.2764858, 13.0218408 ], [ 80.276468, 13.021788 ], [ 80.2765472, 13.0216093 ], [ 80.2765913, 13.0215607 ], [ 80.2766322, 13.0213569 ], [ 80.27669, 13.0212419 ], [ 80.2766716, 13.0211014 ], [ 80.2766355, 13.0210291 ], [ 80.276531, 13.0209312 ], [ 80.2765192, 13.0209084 ], [ 80.2765315, 13.0207945 ], [ 80.2764297, 13.0205121 ], [ 80.2763028, 13.0203447 ], [ 80.2759165, 13.0203362 ], [ 80.2758732, 13.0202469 ], [ 80.2758932, 13.0201237 ], [ 80.2759525, 13.0200683 ], [ 80.276386, 13.0199567 ], [ 80.2764551, 13.0197078 ], [ 80.2764053, 13.0195966 ], [ 80.2763721, 13.0195219 ], [ 80.2762488, 13.0193378 ], [ 80.2762126, 13.0192431 ], [ 80.2761821, 13.0191894 ], [ 80.2761212, 13.0188937 ], [ 80.2759463, 13.018739 ], [ 80.2757856, 13.0185745 ], [ 80.2757413, 13.0184467 ], [ 80.2757373, 13.0183992 ], [ 80.2757078, 13.0182763 ], [ 80.2757591, 13.0178827 ], [ 80.2757645, 13.01784 ], [ 80.2757763, 13.0177444 ], [ 80.2757964, 13.0177236 ], [ 80.2759107, 13.0176519 ], [ 80.2760476, 13.0175933 ], [ 80.2761977, 13.0175768 ], [ 80.2762658, 13.0173888 ], [ 80.2764116, 13.0170434 ], [ 80.2764155, 13.0170143 ], [ 80.276416, 13.0166328 ], [ 80.2764234, 13.0164798 ], [ 80.2764411, 13.0161166 ], [ 80.276612, 13.0157854 ], [ 80.2768065, 13.0157746 ], [ 80.2768608, 13.0158323 ], [ 80.2769043, 13.0158811 ], [ 80.2769296, 13.0159112 ], [ 80.27695, 13.0159465 ], [ 80.276971, 13.015988 ], [ 80.276992, 13.0160295 ], [ 80.2770192, 13.0160396 ], [ 80.2770443, 13.0160319 ], [ 80.277053, 13.0160242 ], [ 80.2770524, 13.0160009 ], [ 80.2770564, 13.0159901 ], [ 80.2770667, 13.0159796 ], [ 80.2770788, 13.0159717 ], [ 80.2771067, 13.0159702 ], [ 80.2771226, 13.0159679 ], [ 80.2771422, 13.0159659 ], [ 80.2771536, 13.0159553 ], [ 80.2771606, 13.0159363 ], [ 80.2771742, 13.0158763 ], [ 80.2771838, 13.0158269 ], [ 80.2771812, 13.0157622 ], [ 80.2771688, 13.015701 ], [ 80.2771423, 13.0156463 ], [ 80.2770971, 13.0155952 ], [ 80.277082, 13.0155408 ], [ 80.2770845, 13.0155101 ], [ 80.2770715, 13.0154819 ], [ 80.2770303, 13.0154531 ], [ 80.2770055, 13.0154144 ], [ 80.2769806, 13.015354 ], [ 80.2769572, 13.0153324 ], [ 80.2768885, 13.0152939 ], [ 80.2768611, 13.0152556 ], [ 80.2768684, 13.0152078 ], [ 80.2768724, 13.0151791 ], [ 80.276841, 13.0151422 ], [ 80.2768054, 13.0150999 ], [ 80.2767702, 13.0150678 ], [ 80.2767415, 13.0150537 ], [ 80.276717, 13.0150672 ], [ 80.2766901, 13.0150986 ], [ 80.2766595, 13.0151196 ], [ 80.2766351, 13.0151396 ], [ 80.2766378, 13.0151604 ], [ 80.2766617, 13.0151775 ], [ 80.2767092, 13.0151678 ], [ 80.2767445, 13.0151727 ], [ 80.2767623, 13.0151886 ], [ 80.2767666, 13.0152181 ], [ 80.2767382, 13.0152575 ], [ 80.2767173, 13.0152854 ], [ 80.2767114, 13.0153402 ], [ 80.276699, 13.0154542 ], [ 80.2766821, 13.0154854 ], [ 80.2766423, 13.0154794 ], [ 80.276621, 13.0154411 ], [ 80.2766293, 13.0153728 ], [ 80.2766247, 13.0153316 ], [ 80.2765971, 13.0152442 ], [ 80.2765733, 13.0151313 ], [ 80.2765802, 13.0149976 ], [ 80.2765978, 13.0149614 ], [ 80.2766355, 13.0149215 ], [ 80.276715, 13.0148738 ], [ 80.2768076, 13.0148201 ], [ 80.2769574, 13.0147446 ], [ 80.2771428, 13.0146894 ], [ 80.2771958, 13.014677 ], [ 80.2771936, 13.0146406 ], [ 80.2771952, 13.0146243 ], [ 80.277206, 13.0146016 ], [ 80.2772208, 13.0145871 ], [ 80.2772409, 13.0145746 ], [ 80.2772853, 13.014517 ], [ 80.2773103, 13.0144432 ], [ 80.2773751, 13.0143248 ], [ 80.277434, 13.0142491 ], [ 80.2774787, 13.0142041 ], [ 80.2775028, 13.0141671 ], [ 80.2775083, 13.0141319 ], [ 80.2774903, 13.0140584 ], [ 80.277473, 13.0139891 ], [ 80.2774884, 13.0138189 ], [ 80.2774936, 13.0137603 ], [ 80.2774852, 13.0137373 ], [ 80.2774096, 13.0137146 ], [ 80.2773536, 13.0137235 ], [ 80.277314, 13.0137115 ], [ 80.2773037, 13.0136787 ], [ 80.2773039, 13.0136451 ], [ 80.2772511, 13.0136129 ], [ 80.2772206, 13.0135779 ], [ 80.2772, 13.0135212 ], [ 80.2771675, 13.0134973 ], [ 80.2771171, 13.0134937 ], [ 80.2770682, 13.0135046 ], [ 80.2770013, 13.0135497 ], [ 80.2769122, 13.013567 ], [ 80.2768204, 13.013565 ], [ 80.2767441, 13.0135406 ], [ 80.2766468, 13.0135019 ], [ 80.2765802, 13.0134547 ], [ 80.2765451, 13.0134522 ], [ 80.276494, 13.0134712 ], [ 80.2764457, 13.0134771 ], [ 80.2764091, 13.0135029 ], [ 80.2763307, 13.0135925 ], [ 80.2762606, 13.0136789 ], [ 80.2762146, 13.0137311 ], [ 80.2761695, 13.0137803 ], [ 80.2761565, 13.0138033 ], [ 80.2761554, 13.0138146 ], [ 80.2761676, 13.0138221 ], [ 80.2761967, 13.0138118 ], [ 80.2762347, 13.0137821 ], [ 80.2762557, 13.0137782 ], [ 80.2762701, 13.0137808 ], [ 80.2762797, 13.0137904 ], [ 80.2762877, 13.0138067 ], [ 80.2762918, 13.0138195 ], [ 80.2762865, 13.0138428 ], [ 80.2762764, 13.0138738 ], [ 80.2762279, 13.0139552 ], [ 80.2761717, 13.0140124 ], [ 80.2761034, 13.0140471 ], [ 80.2760558, 13.0140538 ], [ 80.2759952, 13.0140296 ], [ 80.2759542, 13.0139894 ], [ 80.2759205, 13.013969 ], [ 80.2758786, 13.0139711 ], [ 80.2757694, 13.0139909 ], [ 80.2757087, 13.0139943 ], [ 80.2756696, 13.0139913 ], [ 80.2756184, 13.0139803 ], [ 80.275598, 13.0139616 ], [ 80.27559, 13.0139415 ], [ 80.2755905, 13.0138868 ], [ 80.2756204, 13.0138326 ], [ 80.2756861, 13.0137785 ], [ 80.2758199, 13.0136911 ], [ 80.2758639, 13.0136625 ], [ 80.275895, 13.0136338 ], [ 80.2759634, 13.0135521 ], [ 80.2760154, 13.0135162 ], [ 80.2761408, 13.0134699 ], [ 80.2762058, 13.0133978 ], [ 80.2762448, 13.0133147 ], [ 80.2763017, 13.0132632 ], [ 80.2764374, 13.013195 ], [ 80.2766379, 13.0131168 ], [ 80.2767343, 13.0131043 ], [ 80.2768415, 13.0131242 ], [ 80.2768967, 13.0131361 ], [ 80.2769477, 13.0131264 ], [ 80.2770088, 13.0131 ], [ 80.2771103, 13.0130315 ], [ 80.2771944, 13.0129995 ], [ 80.2773145, 13.0129883 ], [ 80.2773775, 13.0129925 ], [ 80.277428, 13.0130047 ], [ 80.2774842, 13.0130333 ], [ 80.2775128, 13.0130583 ], [ 80.2775416, 13.0131003 ], [ 80.2774629, 13.0126145 ], [ 80.2773716, 13.0121204 ], [ 80.27729, 13.0121235 ], [ 80.2771931, 13.0121793 ], [ 80.2770709, 13.0123886 ], [ 80.2768004, 13.0122995 ], [ 80.2767555, 13.0123354 ], [ 80.2767004, 13.0123818 ], [ 80.276657, 13.0124318 ], [ 80.2766139, 13.0124741 ], [ 80.2765644, 13.0124989 ], [ 80.2765044, 13.0125081 ], [ 80.2768463, 13.0121677 ], [ 80.2767598, 13.0121119 ], [ 80.2765346, 13.0121033 ], [ 80.2763986, 13.0121736 ], [ 80.2763289, 13.0121443 ], [ 80.2762829, 13.0121431 ], [ 80.2762401, 13.0121584 ], [ 80.2762284, 13.0121234 ], [ 80.2761731, 13.0120877 ], [ 80.2760629, 13.0120552 ], [ 80.2759786, 13.0120382 ], [ 80.2759544, 13.0120304 ], [ 80.2759471, 13.0120186 ], [ 80.2759486, 13.0119929 ], [ 80.2759657, 13.0119678 ], [ 80.2759868, 13.0119435 ], [ 80.2760069, 13.0119227 ], [ 80.2760302, 13.0119005 ], [ 80.2760557, 13.0118821 ], [ 80.2761646, 13.0118188 ], [ 80.2762188, 13.0117939 ], [ 80.276271, 13.0117614 ], [ 80.2763024, 13.0117409 ], [ 80.2763348, 13.0117249 ], [ 80.2763545, 13.0117054 ], [ 80.2763704, 13.0116693 ], [ 80.2763793, 13.0116165 ], [ 80.2763758, 13.0116005 ], [ 80.276352, 13.0115972 ], [ 80.2762896, 13.0116119 ], [ 80.2762353, 13.0116051 ], [ 80.2761951, 13.0115956 ], [ 80.2761679, 13.0115997 ], [ 80.276135, 13.0116221 ], [ 80.2760507, 13.0116624 ], [ 80.2759543, 13.0117017 ], [ 80.275889, 13.0117115 ], [ 80.275829, 13.0117007 ], [ 80.2758018, 13.0116687 ], [ 80.2758015, 13.0116458 ], [ 80.275812, 13.0116281 ], [ 80.2758289, 13.0116105 ], [ 80.2758651, 13.0115925 ], [ 80.2758845, 13.0115749 ], [ 80.2758997, 13.0115442 ], [ 80.2759037, 13.0115081 ], [ 80.2759007, 13.0114677 ], [ 80.2758972, 13.0114087 ], [ 80.2759022, 13.011365 ], [ 80.2758951, 13.0113358 ], [ 80.2758733, 13.0113086 ], [ 80.2758377, 13.0112655 ], [ 80.2758081, 13.0112439 ], [ 80.2757614, 13.011212 ], [ 80.275734, 13.0112351 ], [ 80.2757071, 13.0112443 ], [ 80.2756695, 13.0112435 ], [ 80.2756272, 13.0112567 ], [ 80.2755926, 13.0112717 ], [ 80.2755717, 13.0112729 ], [ 80.27556, 13.0112685 ], [ 80.2755412, 13.0112614 ], [ 80.275516, 13.0112269 ], [ 80.2754823, 13.0111354 ], [ 80.2754594, 13.0110864 ], [ 80.2754257, 13.0110497 ], [ 80.2753535, 13.0109978 ], [ 80.2752685, 13.0109663 ], [ 80.2751521, 13.010936 ], [ 80.2750159, 13.01093 ], [ 80.274812, 13.0109189 ], [ 80.274569, 13.0108691 ], [ 80.2741966, 13.0108016 ], [ 80.2739892, 13.0107847 ], [ 80.2737358, 13.0107485 ], [ 80.2735439, 13.0107581 ], [ 80.2734546, 13.0107771 ], [ 80.273427, 13.0107859 ], [ 80.2733895, 13.0107746 ], [ 80.273339, 13.0107528 ], [ 80.2732676, 13.0107595 ], [ 80.2730335, 13.0108406 ], [ 80.2729453, 13.0108588 ], [ 80.2728202, 13.0108519 ], [ 80.2727792, 13.0108355 ], [ 80.2726484, 13.0108308 ], [ 80.2725201, 13.0108018 ], [ 80.2723663, 13.0107497 ] ] ] } },
{ "type": "Feature", "properties": { "water_type": "water", "name": "IIT Lake" }, "geometry": { "type": "MultiPolygon", "coordinates": [ [ [ [ 80.2424121, 12.9989236 ], [ 80.2427476, 12.9995151 ], [ 80.2428967, 12.9998672 ], [ 80.2429853, 13.0001893 ], [ 80.2430222, 13.000275 ], [ 80.2430734, 13.0002979 ], [ 80.2431094, 13.0002877 ], [ 80.2431214, 13.0002235 ], [ 80.2431881, 13.0001803 ], [ 80.2432605, 13.0001991 ], [ 80.2433196, 13.000231 ], [ 80.2433529, 13.0002063 ], [ 80.2433684, 13.000092 ], [ 80.2432131, 12.9994202 ], [ 80.2432198, 12.9991218 ], [ 80.2431791, 12.9988844 ], [ 80.2430571, 12.9984368 ], [ 80.2429268, 12.9981948 ], [ 80.2428222, 12.9978325 ], [ 80.242741, 12.9973976 ], [ 80.2427306, 12.9970962 ], [ 80.2424866, 12.997096 ], [ 80.2422099, 12.9970755 ], [ 80.2419396, 12.9970457 ], [ 80.241857, 12.997044 ], [ 80.2415709, 12.9967651 ], [ 80.2412824, 12.9964117 ], [ 80.241158, 12.9960816 ], [ 80.2408518, 12.9956127 ], [ 80.2404547, 12.9950385 ], [ 80.24, 12.994467565332895 ], [ 80.24, 12.994869208844705 ], [ 80.2406743, 12.9957148 ], [ 80.2407035, 12.9957514 ], [ 80.241048, 12.9962825 ], [ 80.2412346, 12.9966509 ], [ 80.2416962, 12.9972811 ], [ 80.2417935, 12.9974897 ], [ 80.2420036, 12.9978757 ], [ 80.2421926, 12.9984337 ], [ 80.2424121, 12.9989236 ] ] ], [ [ [ 80.2401771, 12.9936079 ], [ 80.2406843, 12.9934117 ], [ 80.2410719, 12.9932586 ], [ 80.2415887, 12.993017 ], [ 80.2415629, 12.9928837 ], [ 80.2410192, 12.9929715 ], [ 80.2407704, 12.993072 ], [ 80.2405073, 12.9930433 ], [ 80.2402585, 12.9929571 ], [ 80.24, 12.992946800334355 ], [ 80.24, 12.993774548196727 ], [ 80.2401771, 12.9936079 ] ] ] ] } }
]
}
